{"type": "FeatureCollection", "features": [{"type": "Feature", "properties": {"elev": 2221.0, "index": false}, "geometry": {"type": "LineString", "coordinates": [[-98.37158211, 20.37353132], [-98.37158979, 20.37352819], [-98.37159938, 20.37352524], [-98.37160897, 20.3735232], [-98.37161856, 20.37352242], [-98.37162814, 20.37352345], [-98.3716377, 20.3735271], [-98.37164324, 20.37353154], [-98.37164724, 20.37353834], [-98.37164809, 20.3735406], [-98.37164901, 20.37354964], [-98.37164792, 20.37355867], [-98.37164715, 20.37356111], [-98.37164492, 20.37356769], [-98.37164066, 20.37357671], [-98.37163748, 20.37358212], [-98.37163507, 20.37358573], [-98.37162804, 20.37359474], [-98.37162785, 20.37359501], [-98.3716188, 20.37360374], [-98.37161823, 20.37360419], [-98.37160862, 20.37361094], [-98.37160516, 20.37361273], [-98.37159902, 20.3736156], [-98.37158942, 20.37361873], [-98.37157983, 20.37362077], [-98.37157302, 20.37362165], [-98.37157024, 20.373622], [-98.37156066, 20.37362242], [-98.37155108, 20.37362175], [-98.37155041, 20.37362157], [-98.37154152, 20.37361765], [-98.37153713, 20.37361249], [-98.37153458, 20.37360344], [-98.3715349, 20.37359441], [-98.37153686, 20.37358538], [-98.37153986, 20.37357635], [-98.3715417, 20.37357229], [-98.37154421, 20.37356733], [-98.3715498, 20.37355832], [-98.37155135, 20.37355633], [-98.37155741, 20.37354931], [-98.37156097, 20.3735458], [-98.37156741, 20.37354031], [-98.37157058, 20.37353806], [-98.37158019, 20.37353222], [-98.37158211, 20.37353132]]}}, {"type": "Feature", "properties": {"elev": 2220.0, "index": true}, "geometry": {"type": "LineString", "coordinates": [[-98.37162672, 20.37349534], [-98.37162825, 20.37349508], [-98.37163784, 20.37349385], [-98.37164742, 20.37349343], [-98.371657, 20.373494], [-98.37166389, 20.37349548], [-98.37166657, 20.3734963], [-98.37167613, 20.37350221], [-98.37167852, 20.37350456], [-98.37168375, 20.37351362], [-98.37168564, 20.37352058], [-98.37168611, 20.37352266], [-98.37168655, 20.3735317], [-98.37168575, 20.37354073], [-98.37168555, 20.373542], [-98.37168408, 20.37354976], [-98.37168156, 20.37355879], [-98.37167826, 20.37356781], [-98.37167585, 20.37357296], [-98.37167401, 20.37357683], [-98.37166899, 20.37358585], [-98.37166619, 20.37359045], [-98.3716633, 20.37359487], [-98.37165732, 20.37360388], [-98.37165655, 20.37360496], [-98.37165048, 20.37361289], [-98.37164692, 20.3736174], [-98.37164297, 20.3736219], [-98.37163729, 20.37362812], [-98.37163422, 20.37363091], [-98.37162768, 20.37363676], [-98.37162307, 20.3736399], [-98.37161807, 20.37364323], [-98.37160847, 20.37364744], [-98.37160137, 20.37364886], [-98.37159888, 20.37364939], [-98.3715893, 20.37364936], [-98.37158278, 20.37364879], [-98.37157972, 20.3736486], [-98.37157703, 20.37364877], [-98.37157013, 20.37364911], [-98.37156054, 20.37365251], [-98.37155276, 20.37365772], [-98.37155093, 20.37365988], [-98.37154295, 20.37366672], [-98.37154131, 20.37366852], [-98.3715317, 20.37367527], [-98.37153084, 20.37367571], [-98.3715221, 20.37368002], [-98.3715125, 20.37368405], [-98.37151049, 20.37368468], [-98.37150291, 20.37368727], [-98.37149331, 20.37369022], [-98.37148372, 20.37369181], [-98.37147704, 20.37368456], [-98.37147756, 20.37367552], [-98.37147951, 20.37366649], [-98.37148195, 20.37365747], [-98.37148389, 20.37365115], [-98.37148466, 20.37364844], [-98.37148777, 20.37363942], [-98.37149087, 20.37363039], [-98.37149359, 20.37362218], [-98.37149388, 20.37362137], [-98.37149736, 20.37361234], [-98.37150075, 20.37360332], [-98.37150327, 20.373597], [-98.37150434, 20.3735943], [-98.3715084, 20.37358527], [-98.37151246, 20.37357625], [-98.37151294, 20.37357535], [-98.37151729, 20.37356723], [-98.3715223, 20.37355822], [-98.37152259, 20.37355777], [-98.37152838, 20.3735492], [-98.37153223, 20.37354398], [-98.37153531, 20.37354019], [-98.37154186, 20.37353308], [-98.37154378, 20.37353119], [-98.37155147, 20.37352462], [-98.37155465, 20.37352219], [-98.37156108, 20.37351797], [-98.37156934, 20.37351321], [-98.37157069, 20.37351258], [-98.37158029, 20.37350846], [-98.37158988, 20.3735047], [-98.37159132, 20.37350425], [-98.37159948, 20.37350184], [-98.37160907, 20.37349925], [-98.37161866, 20.37349694], [-98.37162672, 20.37349534]]}}, {"type": "Feature", "properties": {"elev": 2219.0, "index": false}, "geometry": {"type": "LineString", "coordinates": [[-98.37166324, 20.37346837], [-98.37166669, 20.37346775], [-98.37167628, 20.37346697], [-98.37168586, 20.37346745], [-98.37169055, 20.37346846], [-98.37169543, 20.37346993], [-98.37170498, 20.37347602], [-98.37170661, 20.37347756], [-98.3717128, 20.37348662], [-98.37171451, 20.37349096], [-98.37171602, 20.37349566], [-98.37171733, 20.3735047], [-98.37171748, 20.37351374], [-98.37171658, 20.37352277], [-98.37171501, 20.3735318], [-98.37171433, 20.37353442], [-98.37171277, 20.37354083], [-98.37171024, 20.37354986], [-98.37170752, 20.37355888], [-98.37170471, 20.37356791], [-98.37170461, 20.37356818], [-98.37170094, 20.37357693], [-98.37169592, 20.37358595], [-98.37169495, 20.37358739], [-98.37168994, 20.37359496], [-98.37168531, 20.3736019], [-98.37168396, 20.37360398], [-98.37167827, 20.37361299], [-98.37167567, 20.3736175], [-98.37167277, 20.37362201], [-98.3716668, 20.37363102], [-98.37166602, 20.3736322], [-98.37166053, 20.37364004], [-98.37165638, 20.37364671], [-98.37165465, 20.37364905], [-98.37164848, 20.37365807], [-98.37164674, 20.37366068], [-98.37164164, 20.37366708], [-98.37163711, 20.3736733], [-98.37163442, 20.37367609], [-98.37162748, 20.37368447], [-98.37162671, 20.3736851], [-98.37161787, 20.37369283], [-98.37161566, 20.37369409], [-98.37160826, 20.37369867], [-98.37159866, 20.37370279], [-98.3715978, 20.37370306], [-98.37158907, 20.37370574], [-98.37157948, 20.37370788], [-98.37156989, 20.37370956], [-98.3715603, 20.37371088], [-98.3715511, 20.37371193], [-98.37155072, 20.37371193], [-98.37154113, 20.3737128], [-98.37153154, 20.37371421], [-98.37152195, 20.37371707], [-98.3715159, 20.37372084], [-98.37151234, 20.37372345], [-98.3715112, 20.37372475]]}}, {"type": "Feature", "properties": {"elev": 2219.0, "index": false}, "geometry": {"type": "LineString", "coordinates": [[-98.3714199, 20.37369089], [-98.37142214, 20.37368436], [-98.37142601, 20.37367534], [-98.3714263, 20.37367498], [-98.37143591, 20.37366742], [-98.37143706, 20.37366634], [-98.37144553, 20.37365743], [-98.37144563, 20.37365734], [-98.37145266, 20.37364832], [-98.37145517, 20.37364472], [-98.37145883, 20.37363931], [-98.37146433, 20.3736303], [-98.37146481, 20.37362948], [-98.37146973, 20.37362128], [-98.37147446, 20.37361253], [-98.37147456, 20.37361226], [-98.37147958, 20.37360324], [-98.37148412, 20.37359431], [-98.37148412, 20.37359422], [-98.37148895, 20.3735852], [-98.37149358, 20.37357619], [-98.37149377, 20.37357582], [-98.3714986, 20.37356717], [-98.37150343, 20.37355833], [-98.37150352, 20.37355815], [-98.37150912, 20.37354913], [-98.37151307, 20.37354291], [-98.371515, 20.37354012], [-98.37152174, 20.37353111], [-98.37152271, 20.37352994], [-98.37152983, 20.3735221], [-98.37153233, 20.37351958], [-98.37153973, 20.3735131], [-98.37154195, 20.37351139], [-98.37155155, 20.37350492], [-98.3715529, 20.37350411], [-98.37156116, 20.37349989], [-98.37157076, 20.3734955], [-98.37157162, 20.37349514], [-98.37158035, 20.37349201], [-98.37158995, 20.37348879], [-98.37159772, 20.3734862], [-98.37159954, 20.37348567], [-98.37160914, 20.37348281], [-98.37161873, 20.37347977], [-98.37162689, 20.37347727], [-98.37162832, 20.37347682], [-98.37163792, 20.37347415], [-98.37164751, 20.37347165], [-98.3716571, 20.37346943], [-98.37166324, 20.37346837]]}}, {"type": "Feature", "properties": {"elev": 2218.0, "index": false}, "geometry": {"type": "LineString", "coordinates": [[-98.37140235, 20.37368438], [-98.3714024, 20.37368429], [-98.37140713, 20.37367581], [-98.37140742, 20.37367527], [-98.37141378, 20.37366626], [-98.37141677, 20.37366274], [-98.37142244, 20.37365725], [-98.37142639, 20.37365284], [-98.37143062, 20.37364825], [-98.37143601, 20.37364167], [-98.37143804, 20.37363924], [-98.37144469, 20.37363022], [-98.37144565, 20.37362896], [-98.37145105, 20.37362121], [-98.37145529, 20.37361481], [-98.37145702, 20.3736122], [-98.37146271, 20.37360318], [-98.37146493, 20.37359939], [-98.37146812, 20.37359417], [-98.37147333, 20.37358515], [-98.37147458, 20.37358289], [-98.37147844, 20.37357613], [-98.37148346, 20.37356711], [-98.37148423, 20.37356567], [-98.37148858, 20.3735581], [-98.37149369, 20.37354908], [-98.37149388, 20.37354872], [-98.37149919, 20.37354006], [-98.37150353, 20.3735333], [-98.37150507, 20.37353105], [-98.37151172, 20.37352204], [-98.37151316, 20.37352023], [-98.37151961, 20.37351303], [-98.37152279, 20.3735097], [-98.37152904, 20.37350403], [-98.3715324, 20.37350133], [-98.37154153, 20.37349503], [-98.37154201, 20.37349477], [-98.37155162, 20.37348974], [-98.37155987, 20.37348606], [-98.37156121, 20.37348553], [-98.37157081, 20.37348222], [-98.37158041, 20.37347909], [-98.37158626, 20.37347712], [-98.37159, 20.37347605], [-98.37159959, 20.37347293], [-98.37160919, 20.37346953], [-98.37161274, 20.37346818], [-98.37161879, 20.37346595], [-98.37162838, 20.37346219], [-98.37163577, 20.37345923], [-98.37163798, 20.37345833], [-98.37164758, 20.37345448], [-98.37165718, 20.37345054], [-98.37165795, 20.37345027], [-98.37166677, 20.37344678], [-98.37167637, 20.37344293], [-98.37168127, 20.37344132], [-98.37168597, 20.37343953], [-98.37169556, 20.37343695], [-98.37170515, 20.37343581], [-98.37171472, 20.3734372], [-98.37172391, 20.37344148], [-98.37172429, 20.37344166], [-98.37173384, 20.37345028], [-98.37173412, 20.37345055], [-98.37174022, 20.37345961], [-98.37174335, 20.37346594], [-98.37174449, 20.37346866], [-98.37174724, 20.3734777], [-98.37174873, 20.37348674], [-98.37174889, 20.37349255]]}}, {"type": "Feature", "properties": {"elev": 2199.0, "index": false}, "geometry": {"type": "LineString", "coordinates": [[-98.37127093, 20.3735638], [-98.37127344, 20.37356229], [-98.37128055, 20.37355735], [-98.37128305, 20.37355555], [-98.37129265, 20.37355197], [-98.37130224, 20.37354911], [-98.37130311, 20.37354839], [-98.37130803, 20.37353937], [-98.37131151, 20.37353035], [-98.3713119, 20.373529], [-98.37131414, 20.37352132], [-98.37131619, 20.37351229], [-98.37132006, 20.37350327], [-98.37132161, 20.3734975], [-98.3713222, 20.37349424], [-98.37132164, 20.37349081], [-98.37132042, 20.3734852], [-98.37131892, 20.37347616], [-98.371318, 20.37346712], [-98.37131698, 20.37345808], [-98.37131481, 20.37344904], [-98.37131225, 20.37344379], [-98.37130987, 20.37343999], [-98.37130569, 20.37343093], [-98.37130438, 20.37342189], [-98.37130277, 20.37341818], [-98.37129685, 20.37341283], [-98.37129322, 20.37341119], [-98.37128364, 20.37341052], [-98.37127702, 20.37341276], [-98.37127404, 20.37341519], [-98.37126836, 20.37342176], [-98.37126441, 20.373425], [-98.37125643, 20.37342956]]}}, {"type": "Feature", "properties": {"elev": 2217.0, "index": false}, "geometry": {"type": "LineString", "coordinates": [[-98.37138917, 20.37367949], [-98.37139218, 20.37367521], [-98.37139758, 20.37366792], [-98.37139874, 20.3736662], [-98.37140586, 20.37365719], [-98.37140721, 20.37365557], [-98.37141347, 20.37364818], [-98.37141684, 20.37364413], [-98.37142108, 20.37363918], [-98.37142647, 20.37363251], [-98.3714283, 20.37363017], [-98.37143524, 20.37362115], [-98.3714361, 20.37361998], [-98.37144188, 20.37361214], [-98.37144574, 20.37360664], [-98.37144815, 20.37360313], [-98.37145413, 20.37359411], [-98.37145538, 20.37359222], [-98.37145991, 20.3735851], [-98.37146503, 20.37357644], [-98.37146522, 20.37357608], [-98.37147062, 20.37356707], [-98.37147468, 20.37355976], [-98.37147564, 20.37355805], [-98.37148076, 20.37354903], [-98.37148433, 20.37354272], [-98.37148587, 20.37354001], [-98.37149137, 20.373531], [-98.37149397, 20.37352676], [-98.37149715, 20.37352198], [-98.37150361, 20.37351297], [-98.37151122, 20.37350396], [-98.37151324, 20.3735018], [-98.37152045, 20.37349496], [-98.37152286, 20.37349289], [-98.37153247, 20.37348606], [-98.37153256, 20.37348597], [-98.37154207, 20.37348094], [-98.37155119, 20.373477], [-98.37155167, 20.37347682], [-98.37156126, 20.37347378], [-98.37157086, 20.37347101], [-98.37158045, 20.37346816], [-98.37158083, 20.37346807], [-98.37159004, 20.37346539], [-98.37159964, 20.37346208], [-98.37160684, 20.37345913], [-98.37160924, 20.37345814], [-98.37161884, 20.37345393], [-98.37162661, 20.37345016], [-98.37162844, 20.37344926], [-98.37163804, 20.37344442], [-98.37164438, 20.37344119], [-98.37164764, 20.37343948], [-98.37165724, 20.3734341], [-98.37166051, 20.37343221], [-98.37166685, 20.37342808], [-98.37167377, 20.37342322], [-98.37167646, 20.37342079], [-98.37168435, 20.37341423], [-98.37168608, 20.37341224], [-98.37169358, 20.37340522], [-98.3716957, 20.37340243], [-98.37170263, 20.37339622], [-98.37170532, 20.37339307], [-98.37171406, 20.37338723], [-98.37171493, 20.3733866], [-98.37172452, 20.37338401], [-98.3717341, 20.37338594], [-98.3717362, 20.3733873], [-98.37174365, 20.37339375], [-98.37174555, 20.37339637], [-98.37174944, 20.37340542], [-98.37175305, 20.37341447], [-98.37175314, 20.37341456], [-98.3717625, 20.37342354], [-98.37176269, 20.37342381], [-98.37176783, 20.3734326], [-98.37177162, 20.37344165], [-98.37177219, 20.37344319], [-98.37177318, 20.37344632]]}}, {"type": "Feature", "properties": {"elev": 2216.0, "index": false}, "geometry": {"type": "LineString", "coordinates": [[-98.3713773, 20.37367509], [-98.37137839, 20.37367381], [-98.37138456, 20.37366615], [-98.37138802, 20.37366174], [-98.37139168, 20.37365714], [-98.37139765, 20.37364975], [-98.37139891, 20.37364813], [-98.37140642, 20.37363912], [-98.37140728, 20.37363804], [-98.37141393, 20.37363011], [-98.37141691, 20.37362642], [-98.37142125, 20.3736211], [-98.37142654, 20.37361435], [-98.37142828, 20.37361209], [-98.37143512, 20.37360308], [-98.37143618, 20.37360164], [-98.37144167, 20.37359407], [-98.37144581, 20.37358803], [-98.37144774, 20.37358506], [-98.37145362, 20.37357604], [-98.37145546, 20.37357298], [-98.37145912, 20.37356703], [-98.37146433, 20.37355801], [-98.37146511, 20.37355657], [-98.37146945, 20.37354899], [-98.37147428, 20.37353997], [-98.37147476, 20.37353907], [-98.37147939, 20.37353095], [-98.37148441, 20.37352221], [-98.3714846, 20.37352194], [-98.37149039, 20.37351292], [-98.37149405, 20.37350751], [-98.37149675, 20.37350391], [-98.37150368, 20.37349526], [-98.37150407, 20.3734949], [-98.37151302, 20.3734859], [-98.3715133, 20.37348563], [-98.37152292, 20.37347825], [-98.37152493, 20.3734769], [-98.37153252, 20.37347268], [-98.37154212, 20.37346865], [-98.37154413, 20.37346794], [-98.37155171, 20.3734658], [-98.3715613, 20.37346357], [-98.37157089, 20.37346144], [-98.3715801, 20.37345903], [-98.37158049, 20.37345894], [-98.37159008, 20.37345617], [-98.37159968, 20.3734525], [-98.37160486, 20.37345008], [-98.37160928, 20.37344793], [-98.37161888, 20.37344272], [-98.37162176, 20.37344111], [-98.37162849, 20.37343716], [-98.37163703, 20.37343213], [-98.37163809, 20.3734315], [-98.3716477, 20.37342584], [-98.37165173, 20.37342314], [-98.37165731, 20.37341901], [-98.37166279, 20.37341415], [-98.37166693, 20.37340874], [-98.37166982, 20.37340514], [-98.37167417, 20.37339612], [-98.37167631, 20.37338709], [-98.37167661, 20.3733833], [-98.37167731, 20.37337806], [-98.37167744, 20.37336902], [-98.37167795, 20.37335999], [-98.37167933, 20.37335096], [-98.37168301, 20.37334193], [-98.37168638, 20.37333788], [-98.37169301, 20.37333293], [-98.37169599, 20.3733315], [-98.37170558, 20.37332864], [-98.37171517, 20.37332687], [-98.37172476, 20.37332564], [-98.37173434, 20.37332495], [-98.37174392, 20.37332544], [-98.3717535, 20.37332755], [-98.37176307, 20.37333084], [-98.37176881, 20.37333321], [-98.37177263, 20.37333521], [-98.37178219, 20.37334139], [-98.37178343, 20.3733423], [-98.37179173, 20.37335082], [-98.37179221, 20.37335136], [-98.37179802, 20.37336042], [-98.37180125, 20.3733673], [-98.3718022, 20.37336947], [-98.37180513, 20.37337852], [-98.37180621, 20.37338346]]}}, {"type": "Feature", "properties": {"elev": 2215.0, "index": true}, "geometry": {"type": "LineString", "coordinates": [[-98.37136679, 20.37367119], [-98.37136883, 20.37366881], [-98.37137114, 20.3736661], [-98.37137836, 20.37365709], [-98.37137846, 20.373657], [-98.37138578, 20.37364808], [-98.37138809, 20.3736452], [-98.37139319, 20.37363907], [-98.37139772, 20.37363367], [-98.3714007, 20.37363007], [-98.37140735, 20.37362214], [-98.37140821, 20.37362106], [-98.37141572, 20.37361205], [-98.37141698, 20.37361052], [-98.37142304, 20.37360304], [-98.37142661, 20.37359853], [-98.37142998, 20.37359403], [-98.37143624, 20.37358556], [-98.37143663, 20.37358502], [-98.37144289, 20.373576], [-98.37144588, 20.3735714], [-98.37144868, 20.37356699], [-98.37145408, 20.37355797], [-98.37145553, 20.37355536], [-98.3714592, 20.37354895], [-98.37146393, 20.37353993], [-98.37146518, 20.3735375], [-98.37146876, 20.37353092], [-98.37147358, 20.3735219], [-98.37147484, 20.37351946], [-98.3714787, 20.37351288], [-98.3714842, 20.37350386], [-98.37148449, 20.37350341], [-98.37149046, 20.37349485], [-98.37149412, 20.37349007], [-98.37149768, 20.37348584], [-98.37150375, 20.37347927], [-98.37150644, 20.37347684], [-98.37151336, 20.37347099], [-98.37151788, 20.37346784], [-98.37152297, 20.3734647], [-98.37153257, 20.3734604], [-98.37153737, 20.37345888], [-98.37154216, 20.37345763], [-98.37155175, 20.37345586], [-98.37156134, 20.37345453], [-98.37157093, 20.37345312], [-98.37158052, 20.37345099], [-98.37158359, 20.37345001], [-98.37159011, 20.37344813], [-98.37159971, 20.37344383], [-98.3716048, 20.37344105], [-98.37160932, 20.37343826], [-98.37161844, 20.37343206], [-98.37161893, 20.3734317], [-98.37162853, 20.37342523], [-98.37163209, 20.37342307], [-98.37163814, 20.37341975], [-98.37164717, 20.37341409], [-98.37164774, 20.37341382], [-98.37165659, 20.37340509], [-98.37165737, 20.37340338], [-98.37166094, 20.37339607], [-98.37166146, 20.37338704], [-98.37165929, 20.37337799], [-98.37165749, 20.37337338], [-98.3716554, 20.37336894], [-98.37165093, 20.37335989], [-98.37164799, 20.37335364], [-98.37164637, 20.37335084], [-98.37164305, 20.37334179], [-98.37164184, 20.37333275], [-98.37164332, 20.37332372], [-98.37164814, 20.37331488], [-98.37164824, 20.3733147], [-98.37165776, 20.37330669], [-98.37165949, 20.37330571], [-98.37166736, 20.37330248], [-98.37167695, 20.37330035], [-98.37168653, 20.37329966], [-98.37169612, 20.37330005], [-98.3717057, 20.37330063], [-98.37171528, 20.37330067], [-98.37172486, 20.37329934], [-98.37173091, 20.37329693], [-98.37173446, 20.37329595], [-98.37174405, 20.37329408], [-98.37175363, 20.37329412], [-98.37176321, 20.37329406], [-98.3717728, 20.37329355], [-98.37178238, 20.37329305], [-98.37179197, 20.37329263], [-98.37180155, 20.37329239], [-98.37181113, 20.37329243], [-98.37182071, 20.37329255], [-98.37183029, 20.37329286], [-98.37183987, 20.37329316], [-98.37184944, 20.37329681], [-98.37184973, 20.37329735], [-98.37185001, 20.37330012]]}}, {"type": "Feature", "properties": {"elev": 2199.0, "index": false}, "geometry": {"type": "LineString", "coordinates": [[-98.37090591, 20.37275411], [-98.37091069, 20.37275182], [-98.37091261, 20.37275092], [-98.37092221, 20.37274617], [-98.37093161, 20.37274286], [-98.37093181, 20.37274259], [-98.37093347, 20.37273383], [-98.37093418, 20.3727248], [-98.37093565, 20.37271577], [-98.37093856, 20.37270674], [-98.37094157, 20.37269799], [-98.37094176, 20.37269772], [-98.37094726, 20.3726887], [-98.37095121, 20.37268456], [-98.37095812, 20.3726797], [-98.37096081, 20.372678], [-98.37097042, 20.37267125], [-98.370971, 20.37267071], [-98.37098004, 20.37266225], [-98.37098052, 20.37266171], [-98.37098621, 20.3726527], [-98.37098395, 20.37264365], [-98.37098015, 20.37263587], [-98.37097057, 20.37263493], [-98.37096099, 20.3726348], [-98.37095984, 20.37263453], [-98.37095142, 20.37263125], [-98.37094185, 20.37262886], [-98.37093228, 20.37262639], [-98.37092922, 20.37262538], [-98.37092807, 20.37262504]]}}, {"type": "Feature", "properties": {"elev": 2214.0, "index": false}, "geometry": {"type": "LineString", "coordinates": [[-98.37135754, 20.37366776], [-98.37135888, 20.37366606], [-98.37135926, 20.37366561], [-98.37136619, 20.37365705], [-98.37136889, 20.37365363], [-98.37137342, 20.37364804], [-98.37137852, 20.37364182], [-98.37138083, 20.37363903], [-98.37138815, 20.37363029], [-98.37138834, 20.37363002], [-98.37139605, 20.37362101], [-98.37139778, 20.37361903], [-98.37140384, 20.37361201], [-98.37140741, 20.37360786], [-98.37141155, 20.373603], [-98.37141703, 20.37359642], [-98.37141896, 20.37359399], [-98.37142609, 20.37358498], [-98.37142666, 20.37358435], [-98.37143283, 20.37357597], [-98.3714363, 20.37357101], [-98.3714391, 20.37356695], [-98.37144469, 20.37355794], [-98.37144595, 20.37355568], [-98.3714499, 20.37354892], [-98.37145454, 20.3735399], [-98.3714556, 20.37353774], [-98.37145908, 20.37353088], [-98.37146352, 20.37352186], [-98.37146526, 20.37351834], [-98.37146816, 20.37351284], [-98.37147308, 20.37350382], [-98.37147491, 20.37350067], [-98.37147858, 20.37349481], [-98.37148456, 20.37348579], [-98.37149168, 20.37347678], [-98.37149419, 20.37347381], [-98.37150015, 20.37346778], [-98.37150381, 20.37346427], [-98.37151083, 20.37345878], [-98.37151342, 20.37345689], [-98.37152302, 20.37345187], [-98.37152907, 20.37344981], [-98.37153262, 20.37344874], [-98.37154221, 20.37344724], [-98.37155179, 20.37344673], [-98.37156137, 20.37344649], [-98.37157096, 20.3734459], [-98.37158055, 20.37344421], [-98.37158966, 20.37344099], [-98.37159014, 20.37344081], [-98.37159974, 20.3734357], [-98.37160513, 20.37343201], [-98.37160936, 20.37342814], [-98.37161561, 20.37342301], [-98.37161897, 20.37341959], [-98.37162724, 20.37341402], [-98.37162858, 20.37341321], [-98.37163818, 20.37340972], [-98.37164586, 20.37340505], [-98.37164779, 20.37340334], [-98.37165203, 20.37339604], [-98.37165101, 20.373387], [-98.37164788, 20.3733812], [-98.37164473, 20.37337794], [-98.37163833, 20.3733715], [-98.37163394, 20.37336887], [-98.37162878, 20.37336406], [-98.37162401, 20.37335979], [-98.37161924, 20.37335372], [-98.37161695, 20.37335073], [-98.3716122, 20.37334168], [-98.37160984, 20.37333263], [-98.37160997, 20.3733236], [-98.3716125, 20.37331457], [-98.37161733, 20.37330555], [-98.37161945, 20.37330276], [-98.37162493, 20.37329655], [-98.37162907, 20.37329286], [-98.37163599, 20.37328755], [-98.37163868, 20.37328584], [-98.37164828, 20.37328082], [-98.37165414, 20.37327858], [-98.37165788, 20.37327733], [-98.37166747, 20.37327537], [-98.37167705, 20.37327487], [-98.37168663, 20.37327608], [-98.37169467, 20.37327872], [-98.3716962, 20.37327918], [-98.37170577, 20.3732831], [-98.37171534, 20.37328594], [-98.37172492, 20.37328624], [-98.37173451, 20.37328384], [-98.37174411, 20.37327944], [-98.37174545, 20.37327891], [-98.37175371, 20.3732737], [-98.37176082, 20.37326993], [-98.37176332, 20.37326822], [-98.37177292, 20.37326301], [-98.37177705, 20.37326095], [-98.37178252, 20.3732579], [-98.37179213, 20.37325242], [-98.37179299, 20.37325197], [-98.37180173, 20.37324721], [-98.37181133, 20.37324381], [-98.3718144, 20.37324301], [-98.37182092, 20.37324132], [-98.37183051, 20.37323937], [-98.3718401, 20.37323786], [-98.37184968, 20.3732369], [-98.37185927, 20.3732364], [-98.37186885, 20.37323643], [-98.37187843, 20.37323701], [-98.37188288, 20.37323757]]}}, {"type": "Feature", "properties": {"elev": 2213.0, "index": false}, "geometry": {"type": "LineString", "coordinates": [[-98.37134904, 20.37366461], [-98.37134969, 20.37366368], [-98.37135479, 20.37365701], [-98.37135932, 20.37365115], [-98.37136182, 20.373648], [-98.37136895, 20.37363917], [-98.37136905, 20.37363899], [-98.37137665, 20.37362998], [-98.37137858, 20.37362773], [-98.37138445, 20.37362097], [-98.37138821, 20.37361674], [-98.37139234, 20.37361196], [-98.37139783, 20.37360593], [-98.37140043, 20.37360296], [-98.37140746, 20.37359503], [-98.37140832, 20.37359395], [-98.37141603, 20.37358494], [-98.37141709, 20.37358368], [-98.37142335, 20.37357593], [-98.37142672, 20.37357143], [-98.37142999, 20.37356692], [-98.37143587, 20.37355791], [-98.37143636, 20.37355718], [-98.37144128, 20.37354889], [-98.37144591, 20.37353987], [-98.37144601, 20.3735396], [-98.37145036, 20.37353085], [-98.37145442, 20.37352183], [-98.37145568, 20.37351894], [-98.37145858, 20.37351281], [-98.37146302, 20.37350379], [-98.37146534, 20.37349919], [-98.37146775, 20.37349477], [-98.37147306, 20.37348575], [-98.37147499, 20.37348269], [-98.37147913, 20.37347674], [-98.37148462, 20.37346926], [-98.37148588, 20.37346773], [-98.37149387, 20.37345872], [-98.37149425, 20.37345827], [-98.37150358, 20.37344972], [-98.37150387, 20.37344945], [-98.37151348, 20.37344289], [-98.37151837, 20.37344074], [-98.37152308, 20.37343877], [-98.37153266, 20.37343708], [-98.37154225, 20.37343712], [-98.37155182, 20.37343815], [-98.3715614, 20.37343926], [-98.37157098, 20.37343948], [-98.37158057, 20.37343834], [-98.37159017, 20.37343458], [-98.3715943, 20.37343197], [-98.37159978, 20.3734272], [-98.3716044, 20.37342297], [-98.37160941, 20.37341567], [-98.37161104, 20.37341396], [-98.3716176, 20.37340495], [-98.37161905, 20.37340188], [-98.37162864, 20.37339839], [-98.37163822, 20.37339951], [-98.37164207, 20.373396], [-98.37163875, 20.37338695], [-98.37163827, 20.3733865], [-98.37162869, 20.37338601], [-98.37161912, 20.37338372], [-98.37161368, 20.37337783], [-98.37160958, 20.37337411], [-98.37160462, 20.37336876], [-98.37160004, 20.37336377], [-98.37159632, 20.37335969], [-98.3715905, 20.37335172], [-98.37158974, 20.37335063], [-98.37158566, 20.37334158], [-98.37158406, 20.37333254], [-98.37158458, 20.37332351], [-98.37158701, 20.37331448], [-98.37159069, 20.37330618], [-98.37159098, 20.37330546], [-98.37159696, 20.37329644], [-98.37160033, 20.37329239], [-98.37160475, 20.37328744], [-98.37160995, 20.37328249], [-98.37161466, 20.37327844], [-98.37161956, 20.37327466], [-98.37162725, 20.37326945], [-98.37162917, 20.37326819], [-98.37163877, 20.37326298], [-98.37164405, 20.37326047], [-98.37164837, 20.37325859], [-98.37165797, 20.37325519], [-98.37166756, 20.37325269], [-98.37167638, 20.37325155], [-98.37167715, 20.37325146], [-98.37168481, 20.37325158], [-98.37168673, 20.37325159], [-98.3716963, 20.37325379], [-98.37170576, 20.37326069], [-98.37170586, 20.37326078], [-98.37171061, 20.37326975], [-98.37171539, 20.37327356], [-98.37172496, 20.3732763], [-98.37173456, 20.37327119], [-98.37173619, 20.37326984], [-98.37173968, 20.37326082], [-98.37174422, 20.37325261], [-98.37174499, 20.3732518], [-98.37175383, 20.37324487], [-98.37175681, 20.3732428], [-98.37176344, 20.37323876], [-98.37177055, 20.37323382], [-98.37177305, 20.37323202], [-98.37178218, 20.37322482], [-98.37178266, 20.37322437], [-98.37179228, 20.37321582], [-98.37180189, 20.37320791], [-98.37180381, 20.37320683], [-98.3718115, 20.37320225], [-98.37182033, 20.37319785], [-98.3718211, 20.3731975], [-98.3718307, 20.37319274], [-98.37183896, 20.37318889], [-98.3718403, 20.37318826], [-98.3718499, 20.37318377], [-98.37185796, 20.37317992], [-98.3718595, 20.3731792], [-98.3718691, 20.37317427], [-98.37187458, 20.37317094], [-98.37187871, 20.37316843], [-98.37188678, 20.37316195], [-98.37188832, 20.3731606], [-98.37189458, 20.37315294], [-98.37189795, 20.37314798], [-98.37190008, 20.37314393], [-98.37190577, 20.37313491], [-98.3719076, 20.37313329], [-98.3719172, 20.37312691], [-98.37191951, 20.37312592], [-98.3719268, 20.37312288], [-98.3719364, 20.37311912], [-98.37194418, 20.37312091]]}}, {"type": "Feature", "properties": {"elev": 2212.0, "index": false}, "geometry": {"type": "LineString", "coordinates": [[-98.37134097, 20.37366161], [-98.37134425, 20.37365697], [-98.37134974, 20.37364949], [-98.3713509, 20.37364796], [-98.37135793, 20.37363895], [-98.37135938, 20.37363715], [-98.37136535, 20.37362994], [-98.371369, 20.3736257], [-98.37137314, 20.37362093], [-98.37137863, 20.3736149], [-98.37138123, 20.37361192], [-98.37138826, 20.37360436], [-98.37138951, 20.37360292], [-98.37139788, 20.37359391], [-98.37140606, 20.37358491], [-98.3714075, 20.37358337], [-98.37141395, 20.3735759], [-98.37141713, 20.37357221], [-98.37142127, 20.37356689], [-98.37142677, 20.37355932], [-98.37142773, 20.37355788], [-98.37143332, 20.37354886], [-98.37143641, 20.37354291], [-98.37143806, 20.37353984], [-98.37144221, 20.37353082], [-98.37144589, 20.3735218], [-98.37144608, 20.37352144], [-98.37144976, 20.37351278], [-98.37145363, 20.37350375], [-98.37145576, 20.37349897], [-98.37145779, 20.37349473], [-98.37146252, 20.37348571], [-98.37146541, 20.37348057], [-98.37146782, 20.3734767], [-98.37147371, 20.37346768], [-98.37147506, 20.3734657], [-98.37148045, 20.37345867], [-98.37148469, 20.37345336], [-98.37148796, 20.37344966], [-98.37149431, 20.37344273], [-98.37149662, 20.37344066], [-98.37150393, 20.37343382], [-98.3715072, 20.37343166], [-98.37151354, 20.37342762], [-98.37152313, 20.37342458], [-98.37153272, 20.37342425], [-98.37154229, 20.37342636], [-98.37155186, 20.37342974], [-98.37155827, 20.37343184], [-98.37156143, 20.37343267], [-98.371571, 20.37343415], [-98.37158059, 20.3734331], [-98.37158328, 20.37343193], [-98.37159019, 20.37342834], [-98.37159625, 20.37342294], [-98.37159982, 20.37341618], [-98.37160137, 20.37341393], [-98.37160409, 20.3734049], [-98.37160364, 20.37339586], [-98.37159994, 20.37338826], [-98.37159918, 20.37338681], [-98.37159116, 20.37337775], [-98.3715904, 20.37337702], [-98.37158085, 20.37336922], [-98.37157989, 20.37336867], [-98.3715713, 20.37336096], [-98.37156977, 20.3733596], [-98.37156416, 20.37335054], [-98.3715618, 20.3733415], [-98.37156181, 20.37333852], [-98.37156174, 20.37333246], [-98.37156184, 20.37333192], [-98.37156321, 20.37332343], [-98.37156612, 20.37331441], [-98.37157009, 20.37330538], [-98.37157154, 20.37330295], [-98.37157549, 20.37329637], [-98.37158118, 20.37328862], [-98.37158214, 20.37328736], [-98.37159032, 20.37327835], [-98.3715908, 20.3732779], [-98.37160013, 20.37326935], [-98.37160042, 20.37326917], [-98.37161003, 20.3732617], [-98.37161186, 20.37326035], [-98.37161964, 20.37325514], [-98.37162569, 20.37325137], [-98.37162925, 20.37324921], [-98.37163885, 20.37324392], [-98.37164202, 20.37324239], [-98.37164845, 20.37323925], [-98.37165805, 20.37323504], [-98.37166256, 20.37323343], [-98.37166765, 20.37323146], [-98.37167724, 20.37322851], [-98.37168683, 20.37322638], [-98.37169642, 20.37322515], [-98.371706, 20.373225], [-98.37171558, 20.37322558], [-98.37172516, 20.37322643], [-98.37173474, 20.37322673], [-98.37174433, 20.37322541], [-98.37174596, 20.37322469], [-98.37175392, 20.37322192], [-98.3717619, 20.37321572], [-98.37176354, 20.37321373], [-98.37176941, 20.37320671], [-98.37177318, 20.37320049], [-98.37177539, 20.37319769], [-98.37178223, 20.37318868], [-98.37178281, 20.37318796], [-98.37179079, 20.37317968], [-98.37179243, 20.37317806], [-98.37180099, 20.37317068], [-98.37180205, 20.37316978], [-98.37181166, 20.37316249], [-98.37181281, 20.37316168], [-98.37182127, 20.37315611], [-98.37182684, 20.3731527], [-98.37183087, 20.37315036], [-98.37184047, 20.37314507], [-98.37184288, 20.37314372], [-98.37185008, 20.37314013], [-98.37185968, 20.37313538], [-98.37186083, 20.37313475], [-98.37186928, 20.37313098], [-98.37187888, 20.3731265], [-98.37188013, 20.37312578], [-98.37188848, 20.37312229], [-98.37189808, 20.37311726], [-98.37189875, 20.37311681], [-98.37190769, 20.37311124], [-98.37191192, 20.37310782], [-98.37191731, 20.37310116], [-98.37191914, 20.37309881], [-98.37192397, 20.3730898], [-98.37192697, 20.37308258], [-98.37192784, 20.37308077], [-98.3719317, 20.37307175], [-98.3719351, 20.37306273], [-98.37193665, 20.3730574], [-98.37193791, 20.3730537], [-98.37193938, 20.37304467], [-98.37193875, 20.37303563], [-98.37193869, 20.3730266], [-98.37194304, 20.37301758], [-98.37194642, 20.37301136], [-98.37194873, 20.37300856], [-98.37195586, 20.37299955], [-98.37195605, 20.37299928], [-98.37196567, 20.37299055], [-98.37197509, 20.37298155], [-98.37197529, 20.37298137], [-98.3719849, 20.37297264], [-98.371985, 20.37297255], [-98.37199452, 20.37296445], [-98.37199567, 20.37296355], [-98.37200414, 20.37295563], [-98.37201371, 20.37295783], [-98.37201781, 20.37296363], [-98.37202084, 20.37297268], [-98.37202102, 20.37297469]]}}, {"type": "Feature", "properties": {"elev": 2211.0, "index": false}, "geometry": {"type": "LineString", "coordinates": [[-98.37133306, 20.37365868], [-98.37133419, 20.37365693], [-98.37134017, 20.37364837], [-98.37134046, 20.37364792], [-98.3713473, 20.37363891], [-98.3713498, 20.37363576], [-98.37135452, 20.3736299], [-98.37135943, 20.37362413], [-98.37136222, 20.37362089], [-98.37136905, 20.37361333], [-98.37137031, 20.37361188], [-98.37137868, 20.37360297], [-98.37137878, 20.37360288], [-98.37138744, 20.37359387], [-98.3713883, 20.37359306], [-98.37139619, 20.37358487], [-98.37139792, 20.37358307], [-98.37140466, 20.37357586], [-98.37140755, 20.37357289], [-98.37141275, 20.37356686], [-98.37141718, 20.37356154], [-98.37141997, 20.37355785], [-98.37142585, 20.37354883], [-98.37142682, 20.37354712], [-98.37143077, 20.37353982], [-98.37143474, 20.37353079], [-98.37143648, 20.37352592], [-98.37143813, 20.37352177], [-98.37144142, 20.37351275], [-98.37144481, 20.37350372], [-98.37144617, 20.37350011], [-98.37144849, 20.3734947], [-98.37145265, 20.37348568], [-98.37145584, 20.37347937], [-98.37145728, 20.37347666], [-98.37146259, 20.37346764], [-98.37146548, 20.37346304], [-98.37146847, 20.37345863], [-98.37147493, 20.37344962], [-98.37147512, 20.37344944], [-98.37148215, 20.37344061], [-98.37148475, 20.37343736], [-98.37148985, 20.3734316], [-98.37149438, 20.37342637], [-98.37149832, 20.37342259], [-98.371504, 20.37341692], [-98.371509, 20.37341359], [-98.37151361, 20.37340982], [-98.37152321, 20.37340542], [-98.37153279, 20.37340555], [-98.37154235, 20.37341227], [-98.3715432, 20.37341372], [-98.3715519, 20.37342035], [-98.37155447, 20.37342279], [-98.37156145, 20.37342634], [-98.37157102, 20.37342936], [-98.37158061, 20.37342876], [-98.37158954, 20.37342292], [-98.37159022, 20.37342184], [-98.37159485, 20.3734139], [-98.37159556, 20.37340487], [-98.37159253, 20.37339582], [-98.37159034, 20.37339274], [-98.37158404, 20.37338676], [-98.37158079, 20.37338413], [-98.37157122, 20.37337993], [-98.37156165, 20.37337791], [-98.37155983, 20.37337763], [-98.37155208, 20.37337535], [-98.37154377, 20.37336854], [-98.37154254, 20.37336555], [-98.37154103, 20.37335949], [-98.37154039, 20.37335046], [-98.37154101, 20.37334142], [-98.37154248, 20.37333239], [-98.37154267, 20.37333158], [-98.37154491, 20.37332336], [-98.37154821, 20.37331434], [-98.37155227, 20.37330532], [-98.37155236, 20.37330505], [-98.37155738, 20.3732963], [-98.37156201, 20.37328945], [-98.37156355, 20.37328729], [-98.37157087, 20.37327828], [-98.37157164, 20.37327738], [-98.37157953, 20.37326927], [-98.37158126, 20.37326765], [-98.37158944, 20.37326027], [-98.37159088, 20.3732591], [-98.37160049, 20.37325146], [-98.37160078, 20.37325128], [-98.3716101, 20.37324454], [-98.37161337, 20.37324229], [-98.37161971, 20.37323806], [-98.37162739, 20.3732333], [-98.37162932, 20.37323214], [-98.37163892, 20.37322657], [-98.37164295, 20.37322432], [-98.37164852, 20.373221], [-98.37165813, 20.37321561], [-98.37165861, 20.37321534], [-98.37166773, 20.37321023], [-98.37167532, 20.37320637], [-98.37167734, 20.3732052], [-98.37168694, 20.37320027], [-98.37169529, 20.3731974], [-98.37169653, 20.37319705], [-98.37170611, 20.3731969], [-98.3717157, 20.37319721], [-98.37171799, 20.37319749], [-98.37172527, 20.37319851], [-98.37173483, 20.37320559], [-98.37173549, 20.37320658], [-98.37174439, 20.37320987], [-98.3717491, 20.37320663], [-98.37174933, 20.3731976], [-98.37174821, 20.37318856], [-98.37175228, 20.37317954], [-98.37175411, 20.37317719], [-98.37175883, 20.37317053], [-98.37176374, 20.37316503], [-98.37176701, 20.37316152], [-98.37177336, 20.37315531], [-98.37177634, 20.37315252], [-98.37178298, 20.37314658], [-98.37178625, 20.37314352], [-98.37179259, 20.37313803], [-98.37179692, 20.37313452], [-98.3718022, 20.37313074], [-98.37181037, 20.37312553], [-98.37181181, 20.37312454], [-98.37182142, 20.37311834], [-98.37182449, 20.37311655], [-98.37183102, 20.37311259], [-98.37184062, 20.37310784], [-98.3718412, 20.37310757], [-98.37185022, 20.37310399], [-98.37185981, 20.37310158], [-98.3718694, 20.3731008], [-98.37187898, 20.3731021], [-98.37188855, 20.37310404], [-98.37189814, 20.37310181], [-98.37190151, 20.37309875], [-98.37190432, 20.37308973], [-98.37190283, 20.37308068], [-98.37190238, 20.37307165], [-98.37190395, 20.37306262], [-98.37190619, 20.37305359], [-98.37190795, 20.37304564], [-98.37190815, 20.37304456], [-98.37190962, 20.37303553], [-98.37191071, 20.3730265], [-98.3719119, 20.37301747], [-98.37191356, 20.37300844], [-98.37191542, 20.37299941], [-98.37191747, 20.37299038], [-98.37191776, 20.3729892], [-98.37191961, 20.37298135], [-98.37192138, 20.37297232], [-98.37192275, 20.37296329], [-98.37192365, 20.37295426], [-98.37192388, 20.37294522], [-98.37192334, 20.37293618], [-98.37192204, 20.37292714], [-98.37191968, 20.3729181], [-98.37191807, 20.37291394], [-98.37191617, 20.37290905], [-98.37191113, 20.3729], [-98.37190857, 20.37289357], [-98.37190762, 20.37289095], [-98.37190859, 20.37288833], [-98.37191618, 20.37288194], [-98.3719182, 20.37288096], [-98.37192779, 20.37287837], [-98.37193739, 20.3728738], [-98.37193816, 20.37287299], [-98.37194472, 20.37286397], [-98.37194703, 20.37286001], [-98.37195021, 20.37285496], [-98.37195666, 20.37284793], [-98.37195907, 20.37284595], [-98.37196628, 20.37284011], [-98.37197405, 20.37283697], [-98.37197587, 20.37283626], [-98.37198546, 20.37283394], [-98.37199505, 20.37283199], [-98.37200464, 20.37283021], [-98.37201423, 20.37282844], [-98.37201596, 20.37282809], [-98.37202382, 20.37282658], [-98.37203341, 20.37282463], [-98.372043, 20.3728224], [-98.3720526, 20.37282], [-98.37205567, 20.37281919], [-98.37206219, 20.37281768], [-98.37207177, 20.37281636], [-98.37208135, 20.37281739], [-98.37208671, 20.37281931], [-98.37209092, 20.37282122], [-98.37210048, 20.3728264], [-98.37210469, 20.37282841], [-98.37211004, 20.37283141], [-98.37211311, 20.37283296]]}}, {"type": "Feature", "properties": {"elev": 2210.0, "index": true}, "geometry": {"type": "LineString", "coordinates": [[-98.37132532, 20.37365581], [-98.37133049, 20.37364788], [-98.37133059, 20.37364779], [-98.37133704, 20.37363887], [-98.37134022, 20.37363464], [-98.37134398, 20.37362986], [-98.37134985, 20.37362274], [-98.37135149, 20.37362085], [-98.37135948, 20.37361194], [-98.37135948, 20.37361185], [-98.37136804, 20.37360284], [-98.3713691, 20.37360185], [-98.37137699, 20.37359384], [-98.37137872, 20.37359222], [-98.37138613, 20.37358483], [-98.37138834, 20.37358276], [-98.37139527, 20.37357583], [-98.37139796, 20.37357331], [-98.37140412, 20.37356683], [-98.37140759, 20.37356332], [-98.3714123, 20.37355782], [-98.37141722, 20.37355133], [-98.37141895, 20.37354881], [-98.37142407, 20.37353979], [-98.37142687, 20.37353302], [-98.37142784, 20.37353077], [-98.37143094, 20.37352174], [-98.37143366, 20.37351272], [-98.37143638, 20.37350369], [-98.37143658, 20.37350315], [-98.37143948, 20.37349467], [-98.37144316, 20.37348564], [-98.37144626, 20.37347888], [-98.37144732, 20.37347662], [-98.37145215, 20.37346761], [-98.37145591, 20.3734612], [-98.37145755, 20.37345859], [-98.37146353, 20.37344957], [-98.37146555, 20.3734466], [-98.37146998, 20.37344056], [-98.37147519, 20.37343335], [-98.37147663, 20.37343155], [-98.37148347, 20.37342254], [-98.37148482, 20.37342065], [-98.3714905, 20.37341353], [-98.37149445, 20.37340803], [-98.37149744, 20.37340452], [-98.3715038, 20.3733955], [-98.37150409, 20.37339505], [-98.37150978, 20.37338649], [-98.37151374, 20.37337747], [-98.37151374, 20.37337738], [-98.37151694, 20.37336844], [-98.37151918, 20.37335942], [-98.37152113, 20.37335039], [-98.37152328, 20.37334136], [-98.37152347, 20.37334064], [-98.3715259, 20.37333233], [-98.37152891, 20.37332331], [-98.3715324, 20.37331428], [-98.37153317, 20.37331248], [-98.37153655, 20.37330526], [-98.37154138, 20.37329624], [-98.37154283, 20.3732939], [-98.37154717, 20.37328723], [-98.37155246, 20.37328002], [-98.37155381, 20.37327822], [-98.37156171, 20.37326921], [-98.37156209, 20.37326876], [-98.37157075, 20.37326021], [-98.37157171, 20.37325931], [-98.37158094, 20.37325121], [-98.37158133, 20.37325085], [-98.37159094, 20.37324311], [-98.3715921, 20.37324221], [-98.37160055, 20.37323574], [-98.37160392, 20.37323322], [-98.37161017, 20.37322863], [-98.3716167, 20.37322423], [-98.37161977, 20.37322234], [-98.37162938, 20.37321632], [-98.37163101, 20.37321524], [-98.37163899, 20.37320985], [-98.37164418, 20.37320626], [-98.3716486, 20.37320275], [-98.37165552, 20.37319726], [-98.37165821, 20.37319465], [-98.37166571, 20.37318826], [-98.37166783, 20.37318664], [-98.37167743, 20.37318288], [-98.37168702, 20.37317975], [-98.37168884, 20.37317931], [-98.37169661, 20.37317744], [-98.3717062, 20.37317476], [-98.37171533, 20.37317037], [-98.37171581, 20.37317001], [-98.37172542, 20.37316272], [-98.37172686, 20.37316137], [-98.37173504, 20.37315291], [-98.37173552, 20.37315237], [-98.37174466, 20.37314373], [-98.37174504, 20.37314337], [-98.37175427, 20.37313554], [-98.37175572, 20.37313437], [-98.37176388, 20.37312844], [-98.37176821, 20.37312538], [-98.37177349, 20.37312242], [-98.37178214, 20.37311639], [-98.3717831, 20.37311567], [-98.37179137, 20.37310739], [-98.37179272, 20.37310541], [-98.37179889, 20.37309838], [-98.37180235, 20.37309424], [-98.37180726, 20.37308938], [-98.37181197, 20.3730846], [-98.37181707, 20.37308038], [-98.37182159, 20.37307651], [-98.3718287, 20.37307138], [-98.3718312, 20.37306958], [-98.3718408, 20.37306384], [-98.37184397, 20.3730624], [-98.3718504, 20.37305944], [-98.37186, 20.37305649], [-98.37186959, 20.37305418], [-98.37187074, 20.37305346], [-98.37187919, 20.37304979], [-98.37188343, 20.37304447], [-98.37188509, 20.37303544], [-98.37188264, 20.3730264], [-98.37188076, 20.37301735], [-98.37188079, 20.37300832], [-98.37188227, 20.37299929], [-98.37188432, 20.37299026], [-98.37188636, 20.37298123], [-98.37188784, 20.3729722], [-98.37188835, 20.37296317], [-98.37188762, 20.37295413], [-98.37188565, 20.37294508], [-98.37188262, 20.37293604], [-98.37187968, 20.37292889], [-98.37187882, 20.37292699], [-98.37187455, 20.37291794], [-98.37187018, 20.37290888], [-98.37186581, 20.37289983], [-98.37186191, 20.37289078], [-98.37186068, 20.37288735], [-98.3718585, 20.37288174], [-98.37185557, 20.37287269], [-98.37185273, 20.37286364], [-98.37185121, 20.37285948], [-98.3718496, 20.3728546], [-98.37184859, 20.37284556], [-98.37184977, 20.37283652], [-98.37185086, 20.37282749], [-98.37185071, 20.37281846], [-98.37184988, 20.37280942], [-98.37185136, 20.37280039], [-98.37185145, 20.37280021], [-98.3718582, 20.37279138], [-98.37186108, 20.37278822], [-98.37186848, 20.37278238], [-98.3718707, 20.37278067], [-98.3718803, 20.37277501], [-98.37188309, 20.37277339], [-98.37188991, 20.37276935], [-98.37189874, 20.37276441], [-98.37189951, 20.37276396], [-98.37190912, 20.37275668], [-98.37191066, 20.37275542], [-98.37191873, 20.37274912], [-98.37192191, 20.37274643], [-98.37192835, 20.37274148], [-98.37193277, 20.37273743], [-98.37193796, 20.37273365], [-98.37194574, 20.37272844], [-98.37194757, 20.37272718], [-98.37195717, 20.37272152], [-98.37196456, 20.37271947], [-98.37196677, 20.37271867], [-98.37197636, 20.372715], [-98.37198596, 20.37271114], [-98.37198893, 20.37271052], [-98.37199555, 20.37270919], [-98.37200514, 20.37270859], [-98.37201471, 20.3727098], [-98.3720243, 20.37270984], [-98.37203389, 20.37270599], [-98.37204301, 20.37270168], [-98.37204349, 20.3727015], [-98.37205308, 20.3726991], [-98.37206267, 20.37269814], [-98.37207227, 20.37269492], [-98.37207802, 20.37269277], [-98.37208186, 20.37269161], [-98.37209145, 20.3726893], [-98.37210105, 20.37268671], [-98.37211064, 20.37268476], [-98.37212021, 20.3726856], [-98.37212979, 20.37268799], [-98.37213936, 20.37268947], [-98.37214895, 20.37268887], [-98.37215853, 20.37268791], [-98.37216812, 20.37268596], [-98.37217771, 20.37268518], [-98.37218728, 20.37268675], [-98.37219685, 20.3726894], [-98.37220642, 20.37269242], [-98.37221045, 20.37269325], [-98.372216, 20.37269444], [-98.37222557, 20.37269692], [-98.37223514, 20.3727012], [-98.37223714, 20.37270238], [-98.3722447, 20.37270629], [-98.37224956, 20.37271146], [-98.37224898, 20.3727163]]}}, {"type": "Feature", "properties": {"elev": 2209.0, "index": false}, "geometry": {"type": "LineString", "coordinates": [[-98.37131768, 20.37365297], [-98.37132091, 20.37364785], [-98.37132101, 20.37364767], [-98.37132708, 20.37363884], [-98.37133064, 20.37363388], [-98.37133373, 20.37362982], [-98.37134027, 20.37362163], [-98.37134095, 20.37362081], [-98.37134884, 20.37361181], [-98.3713499, 20.37361073], [-98.37135741, 20.3736028], [-98.37135952, 20.37360073], [-98.37136655, 20.3735938], [-98.37136914, 20.37359137], [-98.37137597, 20.3735848], [-98.37137876, 20.37358228], [-98.3713855, 20.3735758], [-98.37138838, 20.37357328], [-98.37139521, 20.37356679], [-98.371398, 20.37356446], [-98.37140454, 20.37355779], [-98.37140762, 20.37355473], [-98.37141234, 20.37354878], [-98.37141726, 20.37354085], [-98.37141784, 20.37353977], [-98.37142171, 20.37353075], [-98.37142433, 20.37352172], [-98.37142628, 20.37351269], [-98.37142697, 20.37350962], [-98.37142843, 20.37350366], [-98.37143086, 20.37349464], [-98.37143396, 20.37348561], [-98.37143667, 20.37347893], [-98.37143764, 20.37347659], [-98.37144199, 20.37346757], [-98.37144633, 20.37345972], [-98.37144701, 20.37345855], [-98.3714527, 20.37344954], [-98.37145598, 20.37344467], [-98.37145887, 20.37344052], [-98.37146513, 20.37343151], [-98.37146562, 20.37343079], [-98.37147149, 20.3734225], [-98.37147525, 20.37341673], [-98.37147757, 20.37341348], [-98.37148326, 20.37340447], [-98.3714849, 20.37340131], [-98.37148847, 20.37339545], [-98.37149282, 20.37338643], [-98.37149456, 20.3733821], [-98.37149669, 20.37337741], [-98.37149998, 20.37336838], [-98.3715028, 20.37335936], [-98.37150425, 20.3733543], [-98.37150552, 20.37335033], [-98.37150833, 20.37334131], [-98.37151134, 20.37333228], [-98.37151395, 20.37332488], [-98.37151454, 20.37332326], [-98.37151831, 20.37331423], [-98.37152237, 20.37330521], [-98.37152363, 20.37330269], [-98.3715271, 20.37329619], [-98.37153231, 20.37328718], [-98.37153328, 20.37328573], [-98.37153858, 20.37327816], [-98.37154291, 20.37327258], [-98.37154571, 20.37326915], [-98.37155254, 20.37326177], [-98.37155408, 20.37326015], [-98.37156216, 20.37325241], [-98.37156351, 20.37325114], [-98.37157177, 20.37324404], [-98.37157399, 20.37324215], [-98.37158139, 20.37323612], [-98.37158514, 20.37323315], [-98.371591, 20.37322856], [-98.37159677, 20.37322416], [-98.37160061, 20.37322128], [-98.37160926, 20.37321517], [-98.37161022, 20.37321454], [-98.37161983, 20.37320816], [-98.37162262, 20.37320618], [-98.37162944, 20.37320114], [-98.37163434, 20.37319718], [-98.37163906, 20.37319295], [-98.37164406, 20.37318818], [-98.37164868, 20.37318323], [-98.37165243, 20.37317918], [-98.3716583, 20.37317396], [-98.37166512, 20.37317019], [-98.3716679, 20.37316866], [-98.3716775, 20.37316562], [-98.37168708, 20.37316421], [-98.37169667, 20.37316244], [-98.37169879, 20.37316127], [-98.37170629, 20.37315362], [-98.37170745, 20.37315227], [-98.37171266, 20.37314325], [-98.37171594, 20.37313811], [-98.37171892, 20.37313424], [-98.37172557, 20.37312595], [-98.37172624, 20.37312523], [-98.3717348, 20.37311622], [-98.37173519, 20.37311577], [-98.37174471, 20.37310722], [-98.37174481, 20.37310713], [-98.37175442, 20.37309949], [-98.37175625, 20.37309823], [-98.37176404, 20.37309085], [-98.37176538, 20.37308923], [-98.37177242, 20.37308022], [-98.37177367, 20.37307859], [-98.37177906, 20.3730712], [-98.37178331, 20.37306498], [-98.37178533, 20.37306219], [-98.37179131, 20.37305318], [-98.37179295, 20.37305056], [-98.37179748, 20.37304416], [-98.37180258, 20.37303668], [-98.37180374, 20.37303515], [-98.37181077, 20.37302614], [-98.37181222, 20.37302425], [-98.37181838, 20.37301713], [-98.37182184, 20.37301326], [-98.37182666, 20.37300812], [-98.37183147, 20.37300344], [-98.3718356, 20.37299912], [-98.37184108, 20.37299444], [-98.37184513, 20.37299012], [-98.3718507, 20.37298535], [-98.37185427, 20.37298111], [-98.37186033, 20.3729749], [-98.37186206, 20.37297211], [-98.37186402, 20.37296308], [-98.37186041, 20.37295529], [-98.37185945, 20.37295403], [-98.37185163, 20.37294496], [-98.37185087, 20.37294397], [-98.37184343, 20.3729359], [-98.37184133, 20.37293309], [-98.37183628, 20.37292683], [-98.3718318, 20.37291977], [-98.37183057, 20.37291778], [-98.37182572, 20.37290872], [-98.3718223, 20.37290121], [-98.37182163, 20.37289967], [-98.37181774, 20.37289062], [-98.37181414, 20.37288158], [-98.37181281, 20.37287832], [-98.37181053, 20.37287253], [-98.37180683, 20.37286348], [-98.37180332, 20.37285524], [-98.37180294, 20.37285443], [-98.37179876, 20.37284538], [-98.37179429, 20.37283632], [-98.37179382, 20.37283542], [-98.37178925, 20.37282727], [-98.3717843, 20.37281903], [-98.37178373, 20.37281821], [-98.37177687, 20.37280915], [-98.37177477, 20.37280671], [-98.37176684, 20.37280008], [-98.37176522, 20.37279899], [-98.37175566, 20.37279363], [-98.37174906, 20.37279098], [-98.37174852, 20.37278194], [-98.37175478, 20.37277293], [-98.37175575, 20.37277176], [-98.37176239, 20.37276392], [-98.37176538, 20.37276023], [-98.37177009, 20.37275491], [-98.37177501, 20.37274779], [-98.37177645, 20.3727459], [-98.37178358, 20.37273689], [-98.37178464, 20.3727359], [-98.37179138, 20.37272788], [-98.37179427, 20.37272455], [-98.3717987, 20.37271887], [-98.3718039, 20.37271266], [-98.37180649, 20.37270987], [-98.37181352, 20.3727014], [-98.37181391, 20.37270086], [-98.37182152, 20.37269185], [-98.37182315, 20.37269077], [-98.37183276, 20.37268367], [-98.37183372, 20.37268286], [-98.37184237, 20.37267765], [-98.37184861, 20.37267387], [-98.37185197, 20.37267208], [-98.37186158, 20.37266588], [-98.37186283, 20.37266489], [-98.3718712, 20.37265652], [-98.37187187, 20.37265589], [-98.37187861, 20.37264687], [-98.37188083, 20.37264291], [-98.37188443, 20.3726396]]}}, {"type": "Feature", "properties": {"elev": 2208.0, "index": false}, "geometry": {"type": "LineString", "coordinates": [[-98.37131009, 20.37365016], [-98.37131142, 20.37364791], [-98.37131152, 20.37364782], [-98.3713173, 20.3736388], [-98.37132106, 20.37363348], [-98.37132366, 20.37362979], [-98.3713306, 20.37362078], [-98.3713307, 20.37362069], [-98.3713383, 20.37361177], [-98.37134032, 20.37360952], [-98.37134668, 20.37360276], [-98.37134995, 20.37359952], [-98.37135581, 20.37359376], [-98.37135957, 20.37359043], [-98.37136563, 20.37358476], [-98.37136918, 20.37358161], [-98.37137553, 20.37357576], [-98.3713788, 20.37357297], [-98.37138572, 20.37356676], [-98.37138842, 20.3735646], [-98.3713964, 20.37355776], [-98.37139803, 20.3735565], [-98.37140582, 20.37354876], [-98.37140765, 20.37354669], [-98.37141238, 20.37353975], [-98.37141605, 20.37353073], [-98.37141733, 20.37352441], [-98.37141801, 20.3735217], [-98.37141939, 20.37351267], [-98.37142067, 20.37350364], [-98.37142243, 20.37349461], [-98.37142477, 20.37348558], [-98.37142709, 20.37347926], [-98.37142816, 20.37347655], [-98.37143193, 20.37346753], [-98.37143666, 20.37345851], [-98.37143676, 20.37345842], [-98.37144216, 20.3734495], [-98.3714464, 20.37344319], [-98.37144823, 20.37344048], [-98.3714545, 20.37343147], [-98.37145604, 20.37342931], [-98.37146076, 20.37342246], [-98.37146568, 20.37341479], [-98.37146664, 20.37341344], [-98.37147195, 20.37340443], [-98.37147533, 20.37339757], [-98.37147649, 20.37339541], [-98.37148046, 20.37338638], [-98.37148365, 20.37337736], [-98.37148501, 20.37337276], [-98.37148657, 20.37336833], [-98.37148929, 20.37335931], [-98.3714921, 20.37335028], [-98.37149472, 20.37334198], [-98.37149501, 20.37334126], [-98.37149821, 20.37333223], [-98.3715016, 20.37332321], [-98.37150441, 20.37331644], [-98.37150537, 20.37331419], [-98.37150944, 20.37330517], [-98.37151378, 20.37329615], [-98.37151407, 20.37329569], [-98.3715188, 20.37328713], [-98.37152372, 20.37327919], [-98.3715244, 20.37327811], [-98.37153095, 20.3732691], [-98.37153336, 20.37326613], [-98.37153856, 20.37326009], [-98.37154298, 20.3732555], [-98.37154741, 20.37325109], [-98.3715526, 20.37324641], [-98.37155741, 20.37324209], [-98.37156222, 20.37323804], [-98.37156808, 20.37323309], [-98.37157183, 20.37323003], [-98.37157914, 20.37322409], [-98.37158145, 20.3732222], [-98.37159058, 20.3732151], [-98.37159106, 20.37321474], [-98.37160067, 20.37320782], [-98.37160317, 20.37320611], [-98.37161028, 20.37320144], [-98.37161633, 20.37319712], [-98.37161989, 20.37319451], [-98.37162719, 20.37318812], [-98.3716295, 20.3731856], [-98.37163557, 20.37317912], [-98.37163913, 20.37317452], [-98.37164308, 20.37317011], [-98.37164876, 20.3731638], [-98.37165193, 20.3731611], [-98.37165837, 20.37315525], [-98.37166308, 20.37315211], [-98.37166798, 20.37314824], [-98.37167615, 20.37314312], [-98.37167759, 20.37314186], [-98.37168692, 20.37313412], [-98.37168721, 20.37313376], [-98.37169366, 20.37312511], [-98.37169684, 20.37311988], [-98.37169906, 20.37311609], [-98.37170514, 20.37310708], [-98.37170649, 20.37310519], [-98.37171207, 20.37309807], [-98.37171612, 20.37309311], [-98.37171968, 20.37308906], [-98.37172574, 20.37308213], [-98.37172776, 20.37308005], [-98.37173536, 20.37307258], [-98.3717371, 20.37307105], [-98.37174498, 20.37306557], [-98.37174949, 20.37306206], [-98.37175459, 20.37305783], [-98.37175777, 20.37305305], [-98.37175896, 20.37304402], [-98.37175918, 20.37303499], [-98.37176056, 20.37302596], [-98.3717629, 20.37301693], [-98.37176435, 20.3730126], [-98.37176591, 20.3730079], [-98.37176939, 20.37299888], [-98.37177307, 20.37298986], [-98.37177404, 20.37298751], [-98.37177694, 20.37298084], [-98.37178033, 20.37297181], [-98.37178295, 20.37296279], [-98.37178374, 20.37295755], [-98.37178433, 20.37295376], [-98.37178456, 20.37294472], [-98.37178383, 20.37293604], [-98.37178383, 20.37293568], [-98.37178252, 20.37292664], [-98.37178074, 20.3729176], [-98.37177876, 20.37290856], [-98.3717766, 20.37289951], [-98.37177442, 20.37289246], [-98.37177386, 20.37289047], [-98.37177044, 20.37288142], [-98.3717655, 20.37287236], [-98.37176492, 20.37287146], [-98.37175883, 20.3728633], [-98.37175539, 20.37285959], [-98.37174909, 20.37285423], [-98.37174584, 20.37285151], [-98.37173628, 20.37284524], [-98.37173619, 20.37284515], [-98.37172673, 20.37283933], [-98.37172089, 20.37283606], [-98.37171717, 20.3728337], [-98.37170761, 20.37282752], [-98.37170675, 20.37282697], [-98.37169806, 20.37282035], [-98.371695, 20.3728179], [-98.37168851, 20.37281146], [-98.37168603, 20.37280883], [-98.37167965, 20.37279977], [-98.37167898, 20.3727985], [-98.37167528, 20.37279072], [-98.37167445, 20.37278168], [-98.37167755, 20.37277265], [-98.3716791, 20.37276877], [-98.37168114, 20.37276363], [-98.3716852, 20.37275461], [-98.37168876, 20.37274893], [-98.37169098, 20.37274559], [-98.37169782, 20.37273658], [-98.3716984, 20.37273577], [-98.37170543, 20.37272757], [-98.37170803, 20.3727246], [-98.37171438, 20.37271857], [-98.37171765, 20.37271488], [-98.37172246, 20.37270956], [-98.37172728, 20.37270371], [-98.37172949, 20.37270055], [-98.37173614, 20.37269154], [-98.37173691, 20.37269064], [-98.37174394, 20.37268253], [-98.37174654, 20.37267983], [-98.37175269, 20.37267353], [-98.37175616, 20.37267074], [-98.37176576, 20.37266454], [-98.37176586, 20.37266454], [-98.37177536, 20.3726606], [-98.37178495, 20.37265774], [-98.37179292, 20.3726556], [-98.37179455, 20.37265525], [-98.37180414, 20.37265239], [-98.37181374, 20.37264736], [-98.3718149, 20.37264665], [-98.37182335, 20.37264017], [-98.37182618, 20.37263857]]}}, {"type": "Feature", "properties": {"elev": 2207.0, "index": false}, "geometry": {"type": "LineString", "coordinates": [[-98.3713025, 20.37364734], [-98.37130791, 20.37363877], [-98.37131148, 20.37363336], [-98.37131389, 20.37362975], [-98.37132054, 20.37362074], [-98.37132112, 20.37362002], [-98.37132786, 20.37361173], [-98.37133075, 20.3736084], [-98.37133594, 20.37360272], [-98.37134037, 20.37359822], [-98.37134499, 20.37359372], [-98.37134999, 20.37358922], [-98.37135499, 20.37358472], [-98.3713596, 20.37358085], [-98.37136547, 20.37357572], [-98.37136922, 20.37357248], [-98.37137576, 20.37356672], [-98.37137884, 20.37356412], [-98.37138701, 20.37355773], [-98.37138845, 20.37355683], [-98.37139806, 20.37354973], [-98.37139912, 20.37354874], [-98.37140711, 20.37353973], [-98.37140769, 20.37353847], [-98.37141117, 20.37353071], [-98.37141245, 20.37352168], [-98.37141268, 20.37351264], [-98.371413, 20.37350361], [-98.3714139, 20.37349458], [-98.37141566, 20.37348555], [-98.37141751, 20.37347923], [-98.37141838, 20.37347652], [-98.37142177, 20.3734675], [-98.37142612, 20.37345848], [-98.37142718, 20.37345676], [-98.37143152, 20.37344946], [-98.37143682, 20.37344189], [-98.37143779, 20.37344045], [-98.37144434, 20.37343143], [-98.37144646, 20.37342864], [-98.3714508, 20.37342242], [-98.3714561, 20.3734144], [-98.37145677, 20.37341341], [-98.37146218, 20.37340439], [-98.37146575, 20.37339699], [-98.37146662, 20.37339537], [-98.37147011, 20.37338635], [-98.37147273, 20.37337732], [-98.37147497, 20.37336829], [-98.37147546, 20.37336631], [-98.37147731, 20.37335927], [-98.37147993, 20.37335024], [-98.37148284, 20.37334121], [-98.37148517, 20.37333454], [-98.37148604, 20.37333219], [-98.37148962, 20.37332317], [-98.3714934, 20.37331414], [-98.37149485, 20.37331081], [-98.37149746, 20.37330512], [-98.37150171, 20.3732961], [-98.37150451, 20.37329042], [-98.37150625, 20.37328708], [-98.37151137, 20.37327806], [-98.37151416, 20.37327356], [-98.37151715, 20.37326905], [-98.3715238, 20.37326022], [-98.3715239, 20.37326004], [-98.37153198, 20.37325103], [-98.37153342, 20.37324968], [-98.3715416, 20.37324203], [-98.37154304, 20.37324077], [-98.37155227, 20.37323303], [-98.37155266, 20.37323276], [-98.37156227, 20.37322476], [-98.37156314, 20.37322404], [-98.37157189, 20.37321657], [-98.37157371, 20.37321504], [-98.3715815, 20.37320847], [-98.37158467, 20.37320604], [-98.37159111, 20.37320119], [-98.37159736, 20.37319705], [-98.37160072, 20.37319508], [-98.37161032, 20.37318951], [-98.37161225, 20.37318807], [-98.37161994, 20.37318105], [-98.37162177, 20.37317907], [-98.37162736, 20.37317005], [-98.37162959, 20.37316545], [-98.37163248, 20.37316103], [-98.37163826, 20.37315202], [-98.37163923, 20.37315067], [-98.3716451, 20.37314301], [-98.37164886, 20.37313778], [-98.37165204, 20.373134], [-98.3716585, 20.37312498], [-98.37166457, 20.37311597], [-98.37166814, 20.37310984], [-98.37166988, 20.37310695], [-98.37167518, 20.37309794], [-98.37167779, 20.37309343], [-98.37168068, 20.37308892], [-98.37168723, 20.37307991], [-98.37168743, 20.37307973], [-98.3716958, 20.3730709], [-98.37169705, 20.37306946], [-98.37170158, 20.37306189], [-98.37170363, 20.37305286], [-98.37170568, 20.37304383], [-98.37170675, 20.37303977], [-98.37170811, 20.3730348], [-98.37171054, 20.37302578], [-98.37171298, 20.37301675], [-98.37171541, 20.37300772], [-98.37171648, 20.37300375], [-98.37171794, 20.3729987], [-98.37172046, 20.37298967], [-98.37172318, 20.37298064], [-98.3717259, 20.37297162], [-98.3717262, 20.37297062], [-98.37172881, 20.37296259], [-98.3717324, 20.37295357], [-98.37173587, 20.37294708], [-98.37173722, 20.37294455], [-98.37173899, 20.37293552], [-98.37173672, 20.37292648], [-98.37173597, 20.37292394], [-98.37173302, 20.37291743], [-98.37173172, 20.37290839], [-98.37172917, 20.37289934], [-98.37172649, 20.37289662], [-98.37171693, 20.37289207], [-98.37171406, 20.37289025], [-98.37170737, 20.37288725], [-98.37169779, 20.37288522], [-98.37168821, 20.372886], [-98.37167863, 20.37288588], [-98.37166905, 20.37288521], [-98.37165947, 20.37288463], [-98.37164989, 20.37288451], [-98.3716403, 20.37288465], [-98.37163073, 20.37288345], [-98.3716248, 20.37288089], [-98.37162116, 20.37287898], [-98.3716142, 20.37287182], [-98.37161164, 20.3728635], [-98.37161146, 20.37286277], [-98.37161034, 20.37285373], [-98.37161019, 20.3728447], [-98.3716108, 20.37283566], [-98.37161151, 20.37282663], [-98.37161181, 20.37282266], [-98.37161212, 20.3728176], [-98.37161292, 20.37280856], [-98.37161401, 20.37279953], [-98.37161529, 20.3727905], [-98.37161677, 20.37278147], [-98.37161901, 20.37277244], [-98.37162163, 20.37276396], [-98.37162182, 20.37276342], [-98.37162512, 20.37275439], [-98.37162937, 20.37274537], [-98.3716313, 20.37274204], [-98.37163487, 20.37273636], [-98.37164085, 20.37272734], [-98.37164094, 20.37272725], [-98.37164721, 20.37271833], [-98.37165058, 20.37271292], [-98.3716529, 20.37270931], [-98.37166021, 20.37270039], [-98.37166031, 20.3727003], [-98.37166983, 20.37269175], [-98.37167041, 20.3726913], [-98.37167945, 20.37268339], [-98.3716806, 20.37268231], [-98.37168907, 20.37267456], [-98.37169041, 20.3726733], [-98.37169869, 20.3726652], [-98.37169955, 20.3726643], [-98.37170821, 20.3726553], [-98.37170831, 20.37265521], [-98.37171668, 20.37264629], [-98.37171793, 20.37264476], [-98.37172467, 20.37263728], [-98.37172508, 20.37263677]]}}, {"type": "Feature", "properties": {"elev": 2206.0, "index": false}, "geometry": {"type": "LineString", "coordinates": [[-98.37129511, 20.3736446], [-98.37129862, 20.37363873], [-98.3713019, 20.37363351], [-98.37130431, 20.37362972], [-98.37131057, 20.37362071], [-98.37131154, 20.37361944], [-98.37131751, 20.37361169], [-98.37132117, 20.37360728], [-98.37132521, 20.37360269], [-98.37133079, 20.37359683], [-98.37133387, 20.37359368], [-98.37134041, 20.37358765], [-98.37134378, 20.37358468], [-98.37135003, 20.37357973], [-98.37135493, 20.37357569], [-98.37135964, 20.37357209], [-98.37136589, 20.37356669], [-98.37136926, 20.37356345], [-98.37137618, 20.37355769], [-98.37137887, 20.3735558], [-98.37138848, 20.37355005], [-98.3713903, 20.37354871], [-98.37139808, 20.37354422], [-98.37140222, 20.37353971], [-98.37140647, 20.37353069], [-98.37140708, 20.37352166], [-98.37140607, 20.37351262], [-98.37140514, 20.37350358], [-98.37140518, 20.37349454], [-98.37140618, 20.37348551], [-98.37140793, 20.37347802], [-98.37140832, 20.37347648], [-98.37141123, 20.37346746], [-98.3714152, 20.37345844], [-98.37141761, 20.37345429], [-98.37142041, 20.37344942], [-98.37142696, 20.37344041], [-98.37142725, 20.37344014], [-98.37143428, 20.3734314], [-98.37143688, 20.37342824], [-98.37144121, 20.37342239], [-98.37144652, 20.37341491], [-98.37144758, 20.37341337], [-98.37145327, 20.37340436], [-98.37145616, 20.37339886], [-98.371458, 20.37339534], [-98.37146139, 20.37338632], [-98.37146324, 20.37337729], [-98.37146453, 20.37336825], [-98.3714659, 20.37336076], [-98.37146619, 20.37335923], [-98.37146843, 20.3733502], [-98.37147125, 20.37334117], [-98.37147445, 20.37333215], [-98.37147561, 20.37332926], [-98.37147812, 20.37332312], [-98.37148199, 20.3733141], [-98.37148528, 20.37330689], [-98.37148615, 20.37330508], [-98.37149031, 20.37329606], [-98.37149456, 20.37328704], [-98.37149495, 20.37328614], [-98.3714991, 20.37327802], [-98.37150412, 20.373269], [-98.3715046, 20.37326819], [-98.37151, 20.37325999], [-98.37151424, 20.3732544], [-98.37151713, 20.37325098], [-98.37152386, 20.37324386], [-98.37152579, 20.37324197], [-98.37153348, 20.37323531], [-98.37153627, 20.37323297], [-98.37154309, 20.37322803], [-98.37154819, 20.37322398], [-98.37155271, 20.37322047], [-98.37155896, 20.37321498], [-98.37156232, 20.37321165], [-98.37156848, 20.37320598], [-98.37157194, 20.37320256], [-98.37157829, 20.37319698], [-98.37158156, 20.37319392], [-98.37159021, 20.37318799], [-98.37159117, 20.37318736], [-98.37160077, 20.37318342], [-98.37161008, 20.37317903], [-98.37161037, 20.37317876], [-98.37161481, 20.37317001], [-98.37161628, 20.37316098], [-98.3716192, 20.37315195], [-98.37162007, 20.37315015], [-98.37162364, 20.37314293], [-98.37162876, 20.37313391], [-98.37162972, 20.37313229], [-98.37163406, 20.3731249], [-98.37163822, 20.37311588], [-98.37163938, 20.37311199], [-98.37164132, 20.37310685], [-98.37164375, 20.37309782], [-98.37164599, 20.3730888], [-98.37164833, 20.37307977], [-98.37164911, 20.37307706], [-98.37165095, 20.37307074], [-98.37165367, 20.37306172], [-98.3716562, 20.37305269], [-98.37165844, 20.37304366], [-98.37165883, 20.37304186], [-98.37166049, 20.37303463], [-98.37166244, 20.3730256], [-98.37166459, 20.37301658], [-98.37166683, 20.37300755], [-98.37166859, 20.37299888], [-98.37166869, 20.37299852], [-98.37167083, 20.37298949], [-98.37167393, 20.37298047], [-98.37167589, 20.37297144], [-98.37167449, 20.3729624], [-98.37166877, 20.37295524], [-98.37166551, 20.37295333], [-98.3716592, 20.37295059], [-98.37164964, 20.37294568], [-98.37164715, 20.37294423], [-98.37164008, 20.37294031], [-98.37163148, 20.37293513], [-98.37163052, 20.37293459], [-98.37162096, 20.37292895], [-98.37161618, 20.37292604], [-98.3716114, 20.37292322], [-98.37160184, 20.37291741], [-98.37160117, 20.37291695], [-98.37159229, 20.37291141], [-98.37158626, 20.37290786], [-98.37158273, 20.3729055], [-98.37157336, 20.37289878], [-98.37157317, 20.37289851], [-98.37157053, 20.37288973], [-98.37156913, 20.37288069], [-98.37156763, 20.37287165], [-98.3715668, 20.37286261], [-98.37156636, 20.37285358], [-98.37156573, 20.37284454], [-98.37156481, 20.3728355], [-98.37156387, 20.37282998], [-98.37156331, 20.37282646], [-98.37156162, 20.37281742], [-98.37156099, 20.37280838], [-98.37156256, 20.37279935], [-98.37156401, 20.37279556], [-98.37156633, 20.37279032], [-98.37157058, 20.3727813], [-98.37157368, 20.37277327], [-98.37157407, 20.37277228], [-98.37157755, 20.37276326], [-98.37158162, 20.37275424], [-98.37158335, 20.37275126], [-98.37158683, 20.37274522], [-98.37159137, 20.3727362], [-98.37159301, 20.37273304], [-98.371596, 20.37272718], [-98.37160121, 20.37271816], [-98.37160266, 20.37271555], [-98.37160642, 20.37270915], [-98.37161202, 20.37270013], [-98.37161231, 20.37269977], [-98.37161828, 20.37269112], [-98.37162194, 20.37268643], [-98.3716257, 20.37268211], [-98.37163156, 20.3726768], [-98.3716358, 20.37267311], [-98.37164118, 20.37266852], [-98.37164599, 20.37266411], [-98.3716508, 20.37265952], [-98.37165522, 20.37265511], [-98.37166042, 20.37264952], [-98.3716636, 20.3726461], [-98.37167005, 20.37263844], [-98.37167111, 20.37263709], [-98.3716721, 20.37263583]]}}, {"type": "Feature", "properties": {"elev": 2205.0, "index": true}, "geometry": {"type": "LineString", "coordinates": [[-98.37128762, 20.37364182], [-98.37128942, 20.3736387], [-98.37129231, 20.37363392], [-98.37129492, 20.37362968], [-98.3713009, 20.37362067], [-98.37130196, 20.37361914], [-98.37130735, 20.37361166], [-98.37131159, 20.37360625], [-98.37131458, 20.37360265], [-98.37132122, 20.37359526], [-98.37132276, 20.37359364], [-98.37133084, 20.3735859], [-98.37133218, 20.37358464], [-98.37134045, 20.3735778], [-98.37134314, 20.37357564], [-98.37135006, 20.37357115], [-98.37135592, 20.37356665], [-98.37135968, 20.37356332], [-98.37136554, 20.37355765], [-98.3713693, 20.37355387], [-98.37137717, 20.37354866], [-98.3713789, 20.37354776], [-98.3713885, 20.37354445], [-98.37139666, 20.37353969], [-98.3713981, 20.37353852], [-98.37140245, 20.37353068], [-98.3714021, 20.37352164], [-98.37139917, 20.37351259], [-98.37139823, 20.37350843], [-98.37139662, 20.37350355], [-98.3713957, 20.37349451], [-98.37139621, 20.37348548], [-98.37139778, 20.37347645], [-98.37139836, 20.37347419], [-98.37140021, 20.37346742], [-98.3714036, 20.37345839], [-98.37140804, 20.37345001], [-98.37140833, 20.37344938], [-98.3714147, 20.37344036], [-98.37141768, 20.37343739], [-98.37142326, 20.37343136], [-98.3714273, 20.37342776], [-98.37143192, 20.37342235], [-98.37143693, 20.37341559], [-98.37143857, 20.37341334], [-98.37144474, 20.37340433], [-98.37144657, 20.37340162], [-98.37145024, 20.37339531], [-98.37145372, 20.37338629], [-98.37145462, 20.37337726], [-98.37145456, 20.37336822], [-98.37145527, 20.37335919], [-98.37145634, 20.37335422], [-98.37145722, 20.37335016], [-98.37145985, 20.37334113], [-98.37146304, 20.37333211], [-98.37146604, 20.37332507], [-98.37146691, 20.37332308], [-98.37147107, 20.37331406], [-98.37147532, 20.37330504], [-98.37147571, 20.37330423], [-98.37147967, 20.37329602], [-98.37148373, 20.373287], [-98.37148538, 20.37328294], [-98.3714876, 20.37327798], [-98.37149176, 20.37326896], [-98.37149504, 20.37326283], [-98.37149668, 20.37325994], [-98.37150266, 20.37325093], [-98.37150468, 20.37324822], [-98.37150998, 20.37324192], [-98.37151431, 20.37323759], [-98.37151941, 20.37323291], [-98.37152392, 20.37322932], [-98.37153142, 20.37322392], [-98.37153353, 20.37322266], [-98.37154314, 20.37321692], [-98.37154564, 20.37321494], [-98.37155276, 20.3732081], [-98.37155487, 20.37320593], [-98.37156238, 20.37319747], [-98.37156286, 20.37319693], [-98.37157066, 20.37318792], [-98.37157201, 20.37318603], [-98.37157894, 20.37317891], [-98.37158163, 20.37317567], [-98.37158884, 20.37316991], [-98.37159125, 20.37316631], [-98.37159473, 20.3731609], [-98.37159792, 20.37315187], [-98.37160092, 20.3731452], [-98.37160189, 20.37314285], [-98.37160681, 20.37313383], [-98.37161057, 20.37312797], [-98.3716125, 20.37312482], [-98.37161771, 20.3731158], [-98.37161861, 20.37310677], [-98.37161712, 20.37309773], [-98.37161619, 20.37308869], [-98.37161575, 20.37307965], [-98.37161598, 20.37307062], [-98.37161736, 20.37306159], [-98.37161874, 20.37305255], [-98.37161935, 20.37304352], [-98.3716191, 20.37303448], [-98.37161827, 20.37302544], [-98.37161716, 20.3730164], [-98.37161643, 20.37300737], [-98.37161512, 20.37299833], [-98.37161113, 20.37299027], [-98.37161056, 20.37298927], [-98.37160293, 20.37298021], [-98.37160159, 20.37297885], [-98.37159291, 20.37297114], [-98.37159205, 20.37297041], [-98.3715825, 20.37296288], [-98.37158144, 20.37296206], [-98.37157294, 20.3729558], [-98.37156893, 20.37295298], [-98.37156339, 20.37294916], [-98.37155545, 20.3729439], [-98.37155383, 20.37294281], [-98.37154427, 20.37293627], [-98.37154208, 20.37293481], [-98.37153473, 20.37292774], [-98.37153339, 20.37292574], [-98.37153065, 20.3729167], [-98.37153002, 20.37290766], [-98.37152967, 20.37289862], [-98.37152942, 20.37288959], [-98.37152907, 20.37288055], [-98.37152863, 20.37287151], [-98.37152848, 20.37286248], [-98.37152775, 20.37285344], [-98.37152682, 20.3728444], [-98.37152648, 20.37283536], [-98.37152651, 20.37282632], [-98.37152684, 20.37281729], [-98.37152745, 20.37280826], [-98.37152864, 20.37279922], [-98.3715303, 20.37279019], [-98.37153293, 20.37278117], [-98.37153535, 20.37277295], [-98.37153555, 20.37277214], [-98.37153798, 20.37276311], [-98.37154118, 20.37275409], [-98.37154505, 20.37274516], [-98.37154505, 20.37274507], [-98.37154921, 20.37273605], [-98.37155346, 20.37272703], [-98.37155471, 20.3727245], [-98.3715579, 20.37271801], [-98.37156254, 20.37270899], [-98.37156437, 20.37270574], [-98.37156756, 20.37269997], [-98.37157306, 20.37269095], [-98.37157402, 20.37268951], [-98.37157903, 20.37268194], [-98.37158366, 20.37267581], [-98.37158578, 20.37267293], [-98.37159329, 20.37266437], [-98.37159377, 20.37266392], [-98.3716029, 20.37265763], [-98.37160712, 20.37265493], [-98.3716125, 20.37265161], [-98.37161933, 20.37264594], [-98.37162212, 20.37264288], [-98.3716278, 20.37263694], [-98.37162932, 20.37263507]]}}, {"type": "Feature", "properties": {"elev": 2204.0, "index": false}, "geometry": {"type": "LineString", "coordinates": [[-98.37128316, 20.37363397], [-98.37128572, 20.37362965], [-98.37129131, 20.37362064], [-98.37129237, 20.37361901], [-98.37129739, 20.37361162], [-98.37130201, 20.37360522], [-98.37130404, 20.37360261], [-98.37131164, 20.3735936], [-98.37132049, 20.3735846], [-98.37132126, 20.37358388], [-98.37133059, 20.3735756], [-98.37133088, 20.37357542], [-98.37134049, 20.37356822], [-98.37134318, 20.37356661], [-98.3713501, 20.37356211], [-98.3713551, 20.37355761], [-98.37135972, 20.37355185], [-98.3713629, 20.37354861], [-98.37136934, 20.37354321], [-98.37137893, 20.37353999], [-98.37138171, 20.37353964], [-98.37138852, 20.37353894], [-98.37139813, 20.3735312], [-98.37139842, 20.37353066], [-98.37139815, 20.3735284], [-98.37139626, 20.37352162], [-98.37139016, 20.37351256], [-98.37138864, 20.3735084], [-98.37138627, 20.37350351], [-98.37138516, 20.37349447], [-98.37138538, 20.37348544], [-98.37138657, 20.3734764], [-98.37138862, 20.37346738], [-98.37138881, 20.37346674], [-98.37139143, 20.37345835], [-98.3713953, 20.37344933], [-98.37139849, 20.37344383], [-98.37140071, 20.37344031], [-98.37140812, 20.37343203], [-98.37140889, 20.37343131], [-98.37141773, 20.37342565], [-98.37142148, 20.37342232], [-98.37142735, 20.37341628], [-98.37142956, 20.37341331], [-98.37143611, 20.3734043], [-98.37143698, 20.37340331], [-98.37144247, 20.37339528], [-98.37144663, 20.37338662], [-98.37144673, 20.37338626], [-98.37144665, 20.37338165], [-98.37144648, 20.37337723], [-98.37144431, 20.37336818], [-98.37144415, 20.37335915], [-98.37144572, 20.37335012], [-98.37144679, 20.3733466], [-98.37144835, 20.37334109], [-98.37145155, 20.37333206], [-98.37145551, 20.37332304], [-98.37145648, 20.37332124], [-98.37146005, 20.37331402], [-98.37146488, 20.373305], [-98.37146613, 20.37330257], [-98.37146942, 20.37329599], [-98.37147367, 20.37328696], [-98.3714758, 20.3732811], [-98.37147706, 20.37327794], [-98.37148007, 20.37326892], [-98.37148384, 20.37325989], [-98.37148548, 20.37325674], [-98.37148877, 20.37325088], [-98.37149455, 20.37324186], [-98.37149513, 20.37324096], [-98.37150187, 20.37323285], [-98.37150476, 20.37323015], [-98.37151235, 20.37322385], [-98.37151437, 20.37322241], [-98.37152398, 20.37321576], [-98.37152552, 20.37321486], [-98.37153358, 20.37321056], [-98.37154165, 20.37320589], [-98.37154319, 20.37320427], [-98.37154839, 20.37319688], [-98.37155282, 20.37319219], [-98.37155619, 20.37318787], [-98.37156102, 20.37317885], [-98.37156247, 20.37317569], [-98.37156556, 20.37316983], [-98.3715702, 20.37316081], [-98.37157214, 20.37315422], [-98.37157291, 20.37315178], [-98.37157468, 20.37314275], [-98.37157701, 20.37313373], [-98.37158059, 20.3731247], [-98.37158185, 20.37312109], [-98.37158389, 20.37311568], [-98.3715846, 20.37310665], [-98.37158396, 20.37309761], [-98.37158342, 20.37308857], [-98.37158404, 20.37307954], [-98.3715857, 20.37307051], [-98.37158832, 20.37306148], [-98.3715897, 20.37305245], [-98.37158648, 20.3730434], [-98.3715822, 20.37303571], [-98.37158144, 20.37303435], [-98.3715764, 20.37302529], [-98.37157269, 20.37301868], [-98.37157116, 20.37301624], [-98.37156497, 20.37300718], [-98.37156316, 20.3730051], [-98.37155667, 20.37299812], [-98.37155362, 20.37299539], [-98.37154626, 20.37298904], [-98.37154407, 20.37298723], [-98.37153452, 20.37298005], [-98.37153442, 20.37297996], [-98.37152496, 20.37297342], [-98.37152104, 20.37297088], [-98.3715154, 20.37296715], [-98.37150814, 20.3729618], [-98.37150585, 20.37296007], [-98.37149821, 20.37295273], [-98.37149631, 20.37295055], [-98.37149145, 20.37294367], [-98.37148861, 20.37293462], [-98.37148913, 20.37292558], [-98.37149041, 20.37291655], [-98.37149159, 20.37290752], [-98.37149201, 20.37289849], [-98.37149157, 20.37288945], [-98.37149094, 20.37288041], [-98.37149059, 20.37287137], [-98.37149044, 20.37286234], [-98.37149057, 20.3728533], [-98.37149013, 20.37284427], [-98.37148978, 20.37283523], [-98.3714902, 20.37282619], [-98.37149043, 20.37281716], [-98.37149085, 20.37280812], [-98.37149175, 20.37279909], [-98.37149341, 20.37279006], [-98.37149508, 20.37278103], [-98.37149655, 20.372772], [-98.37149704, 20.37276983], [-98.3714985, 20.37276297], [-98.37150161, 20.37275395], [-98.37150509, 20.37274492], [-98.37150674, 20.37274077], [-98.37150867, 20.3727359], [-98.37151254, 20.37272688], [-98.37151641, 20.37271831], [-98.3715166, 20.37271786], [-98.37152095, 20.37270884], [-98.37152578, 20.37269982], [-98.37152607, 20.37269928], [-98.3715309, 20.3726908], [-98.37153572, 20.37268296], [-98.37153649, 20.37268179], [-98.37154266, 20.37267277], [-98.37154536, 20.37266917], [-98.3715495, 20.37266376], [-98.37155499, 20.37265746], [-98.37155749, 20.37265475], [-98.37156461, 20.37264791], [-98.3715672, 20.37264575], [-98.37157422, 20.37264036], [-98.37158085, 20.37263677], [-98.37158382, 20.37263497], [-98.37158532, 20.37263428]]}}, {"type": "Feature", "properties": {"elev": 2203.0, "index": false}, "geometry": {"type": "LineString", "coordinates": [[-98.37128112, 20.37362226], [-98.37128212, 20.3736206], [-98.37128279, 20.37361943], [-98.37128771, 20.37361159], [-98.37129243, 20.37360429], [-98.37129359, 20.37360257], [-98.37130053, 20.37359356], [-98.37130207, 20.37359176], [-98.37130871, 20.37358456], [-98.37131169, 20.37358176], [-98.37131833, 20.37357555], [-98.37132131, 20.37357294], [-98.3713289, 20.37356656], [-98.37133092, 20.37356476], [-98.37134044, 20.37355756], [-98.37134053, 20.37355747], [-98.37134939, 20.37354856], [-98.37135016, 20.37354757], [-98.3713568, 20.37353955], [-98.37135979, 20.37353613], [-98.37136709, 20.37353055], [-98.3713694, 20.37352758], [-98.37137824, 20.37352155], [-98.37137454, 20.37351251], [-98.37137324, 20.37350346], [-98.37137308, 20.37349443], [-98.3713736, 20.37348539], [-98.37137469, 20.37347636], [-98.37137635, 20.37346733], [-98.37137869, 20.3734583], [-98.37137927, 20.37345632], [-98.3713816, 20.37344928], [-98.37138557, 20.37344026], [-98.37138894, 20.37343449], [-98.37139106, 20.37343124], [-98.37139857, 20.37342368], [-98.37140068, 20.37342224], [-98.37140817, 20.37341847], [-98.37141777, 20.37341426], [-98.37141873, 20.37341327], [-98.37142634, 20.37340426], [-98.3714274, 20.37340318], [-98.37143356, 20.37339525], [-98.37143704, 20.37338822], [-98.37143782, 20.37338623], [-98.37143707, 20.37338234], [-98.37143507, 20.37337718], [-98.37143185, 20.37336814], [-98.37143179, 20.3733591], [-98.37143375, 20.37335007], [-98.37143656, 20.37334105], [-98.37143724, 20.37333915], [-98.37143966, 20.37333202], [-98.37144344, 20.373323], [-98.37144691, 20.37331678], [-98.37144836, 20.37331398], [-98.37145424, 20.37330497], [-98.37145656, 20.373301], [-98.37145907, 20.37329595], [-98.37146371, 20.37328693], [-98.37146622, 20.37328106], [-98.37146729, 20.37327791], [-98.37146847, 20.37326887], [-98.37147072, 20.37325985], [-98.37147516, 20.37325083], [-98.37147593, 20.37324947], [-98.37148018, 20.37324181], [-98.37148472, 20.37323279], [-98.37148559, 20.37323117], [-98.37149089, 20.37322378], [-98.37149522, 20.37321936], [-98.37150223, 20.37321478], [-98.37150483, 20.37321316], [-98.37151443, 20.3732066], [-98.37151559, 20.37320579], [-98.37152367, 20.37319679], [-98.37152406, 20.37319597], [-98.3715285, 20.37318777], [-98.37153237, 20.37317875], [-98.37153373, 20.37317423], [-98.37153538, 20.37316972], [-98.37153647, 20.37316069], [-98.37153622, 20.37315165], [-98.37153558, 20.37314261], [-98.37153485, 20.37313358], [-98.37153441, 20.37312454], [-98.37153406, 20.3731155], [-98.3715341, 20.37310646], [-98.37153404, 20.37309743], [-98.37153405, 20.37309589], [-98.37153398, 20.37308839], [-98.37153411, 20.37307936], [-98.37153411, 20.37307918], [-98.37153492, 20.37307032], [-98.37153572, 20.37306129], [-98.37153489, 20.37305225], [-98.37153424, 20.37304909], [-98.37153292, 20.37304321], [-98.37153018, 20.37303416], [-98.37152571, 20.37302511], [-98.37152476, 20.37302348], [-98.37152134, 20.37301606], [-98.37151524, 20.37300782], [-98.3715139, 20.373007], [-98.37150567, 20.37300408], [-98.37149609, 20.37300305], [-98.37148651, 20.37300337], [-98.37147692, 20.37300479], [-98.37146733, 20.37300674], [-98.37146704, 20.37300683], [-98.37145774, 20.37300869], [-98.37145152, 20.37300677], [-98.3714483, 20.37299773], [-98.37145016, 20.3729887], [-98.3714523, 20.37297967], [-98.37145397, 20.37297064], [-98.37145448, 20.3729616], [-98.37145519, 20.37295257], [-98.37145638, 20.37294354], [-98.3714567, 20.3729345], [-98.37145655, 20.37292547], [-98.3714562, 20.37291643], [-98.37145547, 20.37290739], [-98.37145426, 20.37289835], [-98.37145353, 20.37288931], [-98.3714528, 20.37288027], [-98.3714513, 20.37287123], [-98.37145029, 20.37286219], [-98.37145004, 20.37285316], [-98.37144959, 20.37284412], [-98.37144992, 20.37283508], [-98.37145072, 20.37282605], [-98.37145047, 20.37281702], [-98.37145032, 20.37280798], [-98.37145141, 20.37279895], [-98.37145336, 20.37278992], [-98.37145569, 20.37278089], [-98.37145813, 20.37277186], [-98.37145871, 20.37276952], [-98.37146046, 20.37276284], [-98.37146251, 20.37275381], [-98.37146446, 20.37274478], [-98.37146699, 20.37273575], [-98.37146845, 20.37273088], [-98.37146981, 20.37272673], [-98.37147282, 20.3727177], [-98.3714764, 20.37270868], [-98.37147814, 20.37270534], [-98.37148103, 20.37269966], [-98.37148586, 20.37269064], [-98.37148779, 20.37268703], [-98.37149069, 20.37268162], [-98.37149571, 20.3726726], [-98.37149744, 20.37266954], [-98.37150092, 20.37266359], [-98.37150651, 20.37265457], [-98.37150709, 20.37265367], [-98.37151259, 20.37264556], [-98.37151673, 20.37263961], [-98.37151904, 20.37263654], [-98.37152168, 20.37263315]]}}, {"type": "Feature", "properties": {"elev": 2202.0, "index": false}, "geometry": {"type": "LineString", "coordinates": [[-98.37127906, 20.37361041], [-98.37128285, 20.37360362], [-98.37128353, 20.37360254], [-98.37128941, 20.37359352], [-98.37129249, 20.37358956], [-98.37129673, 20.37358451], [-98.37130212, 20.3735792], [-98.37130597, 20.37357551], [-98.37131173, 20.37357065], [-98.37131645, 20.37356651], [-98.37132135, 20.3735621], [-98.37132645, 20.37355751], [-98.37133097, 20.37355247], [-98.37133492, 20.37354851], [-98.3713406, 20.37354112], [-98.37134195, 20.3735395], [-98.37134841, 20.37353048], [-98.37135024, 20.37352742], [-98.3713541, 20.37352147], [-98.37135749, 20.37351244], [-98.37135915, 20.37350341], [-98.37135995, 20.3734961], [-98.37136015, 20.37349438], [-98.37136105, 20.37348535], [-98.37136223, 20.37347632], [-98.37136371, 20.37346729], [-98.37136547, 20.37345826], [-98.37136752, 20.37344923], [-98.37136975, 20.37344065], [-98.37136985, 20.3734402], [-98.37137305, 20.37343118], [-98.3713774, 20.37342216], [-98.37137943, 20.37341855], [-98.37138366, 20.37341314], [-98.37138905, 20.37340738], [-98.37139539, 20.37340415], [-98.37139866, 20.37340235], [-98.37140824, 20.37340149], [-98.37141784, 20.37339637], [-98.37141881, 20.3733952], [-98.37141787, 20.37338932], [-98.37141654, 20.37338615], [-98.37141246, 20.3733771], [-98.37141278, 20.37336807], [-98.3714157, 20.37335904], [-98.37141801, 20.37335526], [-98.37142014, 20.37335002], [-98.3714242, 20.373341], [-98.37142711, 20.37333198], [-98.37142769, 20.37333053], [-98.37143021, 20.37332295], [-98.37143514, 20.37331393], [-98.37143736, 20.37331015], [-98.37144073, 20.37330492], [-98.37144623, 20.3732959], [-98.37144701, 20.37329392], [-98.37144962, 20.37328688], [-98.37145359, 20.37327786], [-98.37145429, 20.37326882], [-98.37145548, 20.37325979], [-98.37145674, 20.37325618], [-98.37145858, 20.37325077], [-98.37146485, 20.37324175], [-98.37146639, 20.3732386], [-98.37146833, 20.37323273], [-98.37146962, 20.3732237], [-98.37147272, 20.37321467], [-98.3714761, 20.37320818], [-98.37147764, 20.37320566], [-98.37148237, 20.37319664], [-98.37148452, 20.37318761], [-98.37148465, 20.37317857], [-98.37148402, 20.37316954], [-98.37148281, 20.3731605], [-98.37148112, 20.37315145], [-98.37147886, 20.37314241], [-98.3714764, 20.37313382], [-98.37147621, 20.37313336], [-98.37147222, 20.37312431], [-98.37146747, 20.37311526], [-98.3714669, 20.37311399], [-98.37146022, 20.3731062], [-98.37145736, 20.37310366], [-98.37144779, 20.37309902], [-98.37143966, 20.37309709], [-98.37143822, 20.37309681], [-98.37142864, 20.3730956], [-98.37141906, 20.37309521], [-98.37140948, 20.37309562], [-98.37139989, 20.37309686], [-98.37139922, 20.37309694], [-98.3713903, 20.37309836], [-98.37138072, 20.37309968], [-98.37137421, 20.37309685], [-98.37137262, 20.37308781], [-98.37137496, 20.37307878], [-98.37137787, 20.37306976], [-98.37138087, 20.37306191], [-98.37138145, 20.37306074], [-98.37138436, 20.37305171], [-98.37138718, 20.37304268], [-98.37139047, 20.37303366], [-98.37139057, 20.37303357], [-98.37139568, 20.37302464], [-98.37140021, 20.3730196], [-98.37140377, 20.37301564], [-98.37140983, 20.37300988], [-98.37141166, 20.37300663], [-98.37141208, 20.37299759], [-98.37141317, 20.37298856], [-98.37141493, 20.37297953], [-98.37141669, 20.3729705], [-98.37141846, 20.37296147], [-98.37141955, 20.37295244], [-98.37141965, 20.37295145], [-98.37142054, 20.37294341], [-98.37142134, 20.37293438], [-98.37142109, 20.37292534], [-98.37141978, 20.37291874], [-98.37141931, 20.3729163], [-98.37141666, 20.37290725], [-98.37141526, 20.37289821], [-98.37141396, 20.37288917], [-98.37141246, 20.37288013], [-98.37141125, 20.37287109], [-98.37141041, 20.37286594], [-98.37140966, 20.37286205], [-98.37140816, 20.37285301], [-98.37140724, 20.37284397], [-98.37140709, 20.37283493], [-98.37140818, 20.3728259], [-98.37140898, 20.37281687], [-98.37140911, 20.37280783], [-98.37140972, 20.3727988], [-98.37141072, 20.37278976], [-98.37141072, 20.37278931], [-98.37141152, 20.37278073], [-98.37141261, 20.3727717], [-98.37141495, 20.37276267], [-98.37141767, 20.37275365], [-98.3714202, 20.37274462], [-98.37142049, 20.37274354], [-98.37142253, 20.37273559], [-98.37142496, 20.37272656], [-98.37142778, 20.37271754], [-98.3714302, 20.37271122], [-98.37143117, 20.37270851], [-98.37143504, 20.37269949], [-98.37143939, 20.37269047], [-98.37143987, 20.37268957], [-98.37144393, 20.37268145], [-98.37144866, 20.37267243], [-98.37144953, 20.37267099], [-98.37145378, 20.37266342], [-98.37145889, 20.3726544], [-98.37145918, 20.37265377], [-98.37146362, 20.37264538], [-98.37146807, 20.37263636], [-98.37146884, 20.37263465], [-98.37147005, 20.37263224]]}}, {"type": "Feature", "properties": {"elev": 2201.0, "index": false}, "geometry": {"type": "LineString", "coordinates": [[-98.37127676, 20.37359722], [-98.37127868, 20.37359348], [-98.37128292, 20.37358654], [-98.37128437, 20.37358447], [-98.37129255, 20.37357555], [-98.37129265, 20.37357546], [-98.37130216, 20.37356782], [-98.3713038, 20.37356647], [-98.37131178, 20.37356053], [-98.37131505, 20.37355747], [-98.3713214, 20.37355008], [-98.37132284, 20.37354846], [-98.37132911, 20.37353945], [-98.37133104, 20.37353611], [-98.3713347, 20.37353043], [-98.37133991, 20.37352142], [-98.37134069, 20.37351979], [-98.37134378, 20.37351239], [-98.37134612, 20.37350337], [-98.3713474, 20.37349434], [-98.37134821, 20.3734853], [-98.3713493, 20.37347627], [-98.37135047, 20.37346986], [-98.37135096, 20.37346724], [-98.37135263, 20.37345821], [-98.37135372, 20.37344918], [-98.37135433, 20.37344015], [-98.37135523, 20.37343111], [-98.37135661, 20.37342208], [-98.37135875, 20.37341305], [-98.37136032, 20.37340511], [-98.37136061, 20.37340402], [-98.37136151, 20.37339499], [-98.37136174, 20.37338596], [-98.37136158, 20.37337692], [-98.37136162, 20.37336788], [-98.37136491, 20.37335886], [-98.37137009, 20.37335734], [-98.37137968, 20.37335503], [-98.37138928, 20.37335163], [-98.37139245, 20.37334992], [-98.37139888, 20.37334715], [-98.37140676, 20.37334094], [-98.37140851, 20.37333498], [-98.3714091, 20.37333191], [-98.37140981, 20.37332288], [-98.3714153, 20.37331386], [-98.37141819, 20.37331026], [-98.3714209, 20.37330485], [-98.37142304, 20.37329582], [-98.37142528, 20.37328679], [-98.37142666, 20.37327776], [-98.37142792, 20.37327433], [-98.37142948, 20.37326873], [-98.37143153, 20.37325971], [-98.37143319, 20.37325068], [-98.37143534, 20.37324165], [-98.37143614, 20.37323261], [-98.37143512, 20.37322357], [-98.37143391, 20.37321453], [-98.37143155, 20.37320549], [-98.37142958, 20.37319645], [-98.37142826, 20.37319075], [-98.37142693, 20.3731874], [-98.37141872, 20.37317933], [-98.37141045, 20.37318734], [-98.3714091, 20.37318924], [-98.3714062, 20.37319636], [-98.37139946, 20.37320474], [-98.37139888, 20.37320537], [-98.37138984, 20.3732132], [-98.37138878, 20.37321437], [-98.37138328, 20.37322339], [-98.37138019, 20.37322916], [-98.37137903, 20.37323241], [-98.37137641, 20.37324144], [-98.37137532, 20.37325047], [-98.37137537, 20.3732595], [-98.37137649, 20.37326854], [-98.37137798, 20.37327758], [-98.37137824, 20.37328662], [-98.37137552, 20.37329565], [-98.37137032, 20.37330123], [-98.37136781, 20.37330466], [-98.37136557, 20.37331368], [-98.371364, 20.37332271], [-98.37136109, 20.37333174], [-98.3713606, 20.37333454], [-98.37135876, 20.37334077], [-98.37135604, 20.37334979], [-98.37135094, 20.37335348], [-98.37134136, 20.37335399], [-98.37133178, 20.37335323], [-98.3713222, 20.37335184], [-98.37131263, 20.37335045], [-98.37130496, 20.37334961], [-98.37130305, 20.37334942], [-98.37129979, 20.37334959], [-98.37129346, 20.37334993], [-98.37128387, 20.37335242], [-98.3712743, 20.37335058], [-98.37127306, 20.37334949], [-98.37127223, 20.37334045], [-98.37127198, 20.37333142], [-98.37127202, 20.37332238], [-98.37127253, 20.37331335], [-98.37127305, 20.37330431], [-98.37127337, 20.37329528], [-98.37127379, 20.37328624], [-98.37127458, 20.37328128], [-98.37127517, 20.37327721], [-98.37127703, 20.37326818], [-98.3712786, 20.37325915], [-98.37127969, 20.37325012], [-98.37128059, 20.37324109], [-98.37128158, 20.37323206], [-98.37128306, 20.37322303], [-98.37128443, 20.37321499], [-98.37128463, 20.373214], [-98.37128581, 20.37320497], [-98.37128623, 20.37319593], [-98.37128627, 20.3731869], [-98.37128669, 20.37317786], [-98.37128749, 20.37316883], [-98.37128944, 20.3731598], [-98.3712914, 20.37315077], [-98.37129239, 20.37314174], [-98.37129396, 20.37313271], [-98.37129435, 20.37313099], [-98.37129611, 20.37312368], [-98.37129854, 20.37311465], [-98.37130001, 20.37310562], [-98.37130139, 20.37309659], [-98.37130401, 20.37308756], [-98.37130411, 20.37308729], [-98.37130712, 20.37307854], [-98.37131194, 20.37306952], [-98.37131378, 20.37306637], [-98.37131677, 20.3730605], [-98.3713215, 20.37305148], [-98.37132343, 20.37304797], [-98.37132614, 20.37304246], [-98.3713301, 20.37303344], [-98.3713331, 20.37302695], [-98.37133436, 20.37302442], [-98.37133823, 20.3730154], [-98.3713421, 20.37300638], [-98.37134277, 20.3730053], [-98.37134855, 20.37299737], [-98.37135241, 20.3729925], [-98.37135606, 20.37298836], [-98.37136137, 20.37297934], [-98.37136205, 20.37297808], [-98.37136514, 20.37297032], [-98.3713715, 20.3729613], [-98.3713717, 20.37296112], [-98.37137997, 20.3729523], [-98.37138132, 20.37295068], [-98.37138528, 20.37294328], [-98.37138733, 20.37293425], [-98.3713865, 20.37292522], [-98.37138175, 20.37291616], [-98.37138146, 20.37291571], [-98.37137546, 20.3729071], [-98.37137194, 20.37290104], [-98.37137023, 20.37289805], [-98.37136519, 20.37288899], [-98.37136243, 20.37288248], [-98.3713612, 20.37287994], [-98.37135913, 20.3728709], [-98.37135773, 20.37286186], [-98.37135757, 20.37285282], [-98.3713577, 20.37284379], [-98.37135803, 20.37283475], [-98.37135806, 20.37282572], [-98.37135829, 20.37281668], [-98.37135785, 20.37280765], [-98.37135769, 20.37279861], [-98.37135773, 20.37278957], [-98.37135805, 20.37278054], [-98.37136039, 20.37277151], [-98.37136291, 20.37276501], [-98.37136378, 20.37276249], [-98.37136631, 20.37275346], [-98.37136874, 20.37274443], [-98.37137146, 20.37273541], [-98.37137263, 20.37273026], [-98.37137351, 20.37272638], [-98.37137527, 20.37271735], [-98.37137751, 20.37270832], [-98.37138023, 20.3726993], [-98.37138236, 20.3726937], [-98.37138372, 20.37269027], [-98.37138797, 20.37268125], [-98.37139202, 20.37267449], [-98.37139347, 20.37267224], [-98.37140107, 20.37266323], [-98.37140165, 20.3726626], [-98.3714105, 20.37265423], [-98.37141127, 20.37265305], [-98.37141542, 20.37264521], [-98.37141901, 20.37263618], [-98.37142094, 20.37263285], [-98.37142157, 20.37263137]]}}, {"type": "Feature", "properties": {"elev": 2200.0, "index": true}, "geometry": {"type": "LineString", "coordinates": [[-98.37087017, 20.37313545], [-98.37087273, 20.37313336], [-98.37087868, 20.37313121], [-98.37088233, 20.37312969], [-98.37089191, 20.37313054], [-98.37089353, 20.37313126], [-98.37090148, 20.37313346], [-98.37091104, 20.37313729], [-98.37092062, 20.37313859], [-98.37093021, 20.373137], [-98.3709398, 20.37313414], [-98.37094307, 20.37313144], [-98.37094942, 20.37312442], [-98.37095029, 20.37312243], [-98.37095483, 20.37311341], [-98.37095908, 20.37310674], [-98.37096646, 20.37310442], [-98.37096867, 20.37310389], [-98.37097828, 20.37309705], [-98.37097905, 20.37309543], [-98.3709879, 20.37308715], [-98.37098915, 20.37308643], [-98.37099751, 20.37308194], [-98.3710071, 20.37307791], [-98.37100854, 20.37307746], [-98.3710167, 20.37307505], [-98.37102629, 20.37307247], [-98.37103244, 20.37306851], [-98.3710359, 20.37306636], [-98.37104196, 20.37305951], [-98.37104552, 20.37305618], [-98.37105331, 20.37305052], [-98.37105513, 20.37304953], [-98.37106472, 20.37304667], [-98.37107431, 20.3730458], [-98.37108389, 20.37304719], [-98.37109345, 20.37305048], [-98.37109374, 20.37305066], [-98.37110301, 20.37305576], [-98.37110846, 20.37305975], [-98.37111257, 20.37306257], [-98.37111944, 20.37306883], [-98.37112212, 20.37307146], [-98.37112746, 20.37307789], [-98.37113164, 20.37308604], [-98.37113221, 20.37308695], [-98.37113716, 20.373096], [-98.37114115, 20.3731027], [-98.37114373, 20.37310506], [-98.3711507, 20.37311177], [-98.37115261, 20.37311413], [-98.37115803, 20.37312318], [-98.37116022, 20.37312563], [-98.37116508, 20.37313224], [-98.37116869, 20.37314129], [-98.3711692, 20.37314764]]}}, {"type": "Feature", "properties": {"elev": 2200.0, "index": true}, "geometry": {"type": "LineString", "coordinates": [[-98.37106334, 20.37315582], [-98.37105967, 20.37315897], [-98.37105466, 20.37316465], [-98.37105206, 20.37316798], [-98.37104848, 20.373177], [-98.37104624, 20.37318603], [-98.37104497, 20.37319325], [-98.37104448, 20.37319506], [-98.37104291, 20.37320409], [-98.37104182, 20.37321312], [-98.37104188, 20.37322216], [-98.37104376, 20.3732312], [-98.3710448, 20.373235], [-98.37104564, 20.37324024], [-98.37104656, 20.37324928], [-98.37104767, 20.37325832], [-98.37104984, 20.37326737], [-98.37105354, 20.37327642], [-98.3710542, 20.37327768], [-98.37105666, 20.37328546], [-98.37105692, 20.3732945], [-98.3710568, 20.37329472]]}}, {"type": "Feature", "properties": {"elev": 2200.0, "index": true}, "geometry": {"type": "LineString", "coordinates": [[-98.3712739, 20.37358084], [-98.3712776, 20.37357541], [-98.37128299, 20.37357028], [-98.3712877, 20.37356641], [-98.3712926, 20.37356344], [-98.3713022, 20.37355842], [-98.37130345, 20.37355743], [-98.37131182, 20.37355014], [-98.37131336, 20.37354843], [-98.37131819, 20.37353941], [-98.37132147, 20.37353219], [-98.37132244, 20.37353039], [-98.37132669, 20.37352137], [-98.37133094, 20.37351235], [-98.37133114, 20.37351199], [-98.37133433, 20.37350332], [-98.37133542, 20.37349429], [-98.37133508, 20.37348526], [-98.37133531, 20.37347622], [-98.37133678, 20.37346719], [-98.3713394, 20.37345816], [-98.37134002, 20.37344913], [-98.37133833, 20.37344009], [-98.37133587, 20.37343104], [-98.37133418, 20.373422], [-98.37133326, 20.37341296], [-98.37133157, 20.37340528], [-98.37133129, 20.37340392], [-98.37132586, 20.37339486], [-98.37132204, 20.37339114], [-98.3713143, 20.37338579], [-98.37131249, 20.37338479], [-98.37130292, 20.37338132], [-98.37129335, 20.37337857], [-98.37128876, 20.37337666], [-98.37128378, 20.37337519], [-98.3712742, 20.37337362], [-98.37126462, 20.37337305], [-98.37125506, 20.37336922], [-98.37125334, 20.37336749], [-98.37124551, 20.3733615], [-98.37124135, 20.37335905]]}}, {"type": "Feature", "properties": {"elev": 2200.0, "index": true}, "geometry": {"type": "LineString", "coordinates": [[-98.37122946, 20.37317588], [-98.37123172, 20.37316863], [-98.37123464, 20.3731596], [-98.37123676, 20.37315554], [-98.37123755, 20.37315058], [-98.3712396, 20.37314155], [-98.37124174, 20.37313252], [-98.37124178, 20.37312348], [-98.37124076, 20.37311444], [-98.37124032, 20.37310541], [-98.37124054, 20.37309637], [-98.37124096, 20.37308734], [-98.37124119, 20.3730783], [-98.37124238, 20.37306927], [-98.37124318, 20.37306024], [-98.37124523, 20.37305121], [-98.37124678, 20.37304841], [-98.37124987, 20.37304219], [-98.37125642, 20.37303399], [-98.37125719, 20.37303318], [-98.37126602, 20.37302797], [-98.37127045, 20.37302419], [-98.37127565, 20.37301807], [-98.37127748, 20.37301518], [-98.37127991, 20.37300615], [-98.37127573, 20.37299783], [-98.37127343, 20.3729971], [-98.37126617, 20.37299237], [-98.37126446, 20.37298803], [-98.37126545, 20.37297899], [-98.37126623, 20.37297755], [-98.37127582, 20.37297424], [-98.37127906, 20.37297904], [-98.37128536, 20.37298648], [-98.37129493, 20.37298778], [-98.37130453, 20.37298266], [-98.3713103, 20.37297916], [-98.37131414, 20.37297601], [-98.37131819, 20.37297015], [-98.3713166, 20.37296111], [-98.37131422, 20.37295748], [-98.37130464, 20.37295555], [-98.37129506, 20.37295543], [-98.37128942, 20.37295197], [-98.37129253, 20.37294295], [-98.37129512, 20.37294097], [-98.37130472, 20.37293739], [-98.37131431, 20.3729358], [-98.37131958, 20.37293401], [-98.3713239, 20.37293213], [-98.3713335, 20.37292764], [-98.37134309, 20.3729256], [-98.37134386, 20.37292506], [-98.37134572, 20.37291603], [-98.37134314, 20.37291358], [-98.37133656, 20.37290696], [-98.3713336, 20.37290506], [-98.37132403, 20.37290132], [-98.37131619, 20.37289785], [-98.37131446, 20.37289722], [-98.3713049, 20.37289194], [-98.37130099, 20.37288876], [-98.37129535, 20.37288341], [-98.37128962, 20.37287969], [-98.3712858, 20.37287552], [-98.37128151, 20.37287062], [-98.3712781, 20.37286157], [-98.37127651, 20.37285253], [-98.37127632, 20.372851], [-98.3712752, 20.37284349], [-98.3712738, 20.37283445], [-98.3712725, 20.37282541], [-98.37127062, 20.37281637], [-98.37126864, 20.37280732], [-98.37126849, 20.37279829], [-98.37126958, 20.37278926], [-98.37127115, 20.37278023], [-98.37127387, 20.3727712], [-98.37127667, 20.3727657], [-98.37127793, 20.37276218], [-98.37128093, 20.37275315], [-98.3712849, 20.37274413], [-98.37128635, 20.37274152], [-98.37129021, 20.37273511], [-98.37129599, 20.37272655], [-98.37129628, 20.3727261], [-98.3712989, 20.37271707], [-98.37130066, 20.37270804], [-98.37130137, 20.37269901], [-98.3713015, 20.37268998], [-98.37130106, 20.37268094], [-98.37130225, 20.37267191], [-98.37130439, 20.37266288], [-98.37130585, 20.37265873], [-98.3713074, 20.37265385], [-98.37131127, 20.37264483], [-98.37131552, 20.37263681], [-98.371316, 20.37263581], [-98.37131994, 20.37262957]]}}]}