{"type": "FeatureCollection", "features": [{"type": "Feature", "properties": {"nombre": "Predio Agua Blanca 1 Ha", "cliente": "Eduardo Marroquin (TopoEM)", "fuente": "Plano T101 (poligono digitalizado · lindero este curvo)", "crs_origen": "UTM 14N / EPSG:32614 / ITRF08", "area_m2": 10876.2, "area_ha": 1.088, "vertices": 31}, "geometry": {"type": "Polygon", "coordinates": [[[-98.37079414, 20.37291485], [-98.37081951, 20.37296103], [-98.37082856, 20.37303737], [-98.37087291, 20.37314191], [-98.37092716, 20.37322788], [-98.37098452, 20.3732907], [-98.3710291, 20.37329976], [-98.37107147, 20.37329205], [-98.37105556, 20.37318218], [-98.37106684, 20.37314394], [-98.37108841, 20.37313053], [-98.37113159, 20.3731315], [-98.37122366, 20.37317101], [-98.37125589, 20.37319806], [-98.37126548, 20.37324489], [-98.37123687, 20.37329594], [-98.37123329, 20.37332489], [-98.37125619, 20.373422], [-98.37125841, 20.373492], [-98.37128432, 20.3736406], [-98.371608, 20.37376066], [-98.37206914, 20.37288312], [-98.37218522, 20.37275068], [-98.37236051, 20.37265615], [-98.37202165, 20.37264204], [-98.37092902, 20.37262262], [-98.37089342, 20.37271304], [-98.3709138, 20.37278008], [-98.37091012, 20.37283101], [-98.37087818, 20.37286935], [-98.37080213, 20.37289225], [-98.37079414, 20.37291485]]]}}]}